{
  "type": "FeatureCollection",
  "name": "pilot-road-surfaces",
  "schema_version": 2,
  "dataset_id": "pilot-road-surfaces",
  "source_id": "source:osm",
  "source_sha256": "09dc9d5aea72e11ad8d84d1c8d2e88132c0a5556e7a2f601824a0a7a74d4adcd",
  "source_retrieved_at": "2026-09-10T13:46:35.844894+00:00",
  "source_crs": "EPSG:4326",
  "projected_crs": "EPSG:32651",
  "local_frame": {
    "origin_wgs84": {
      "longitude": 121.050972,
      "latitude": 14.550806
    },
    "origin_projected": {
      "easting": 289998.297,
      "northing": 1609541.742
    },
    "axes": {
      "x": "east",
      "y": "north",
      "z": "up"
    },
    "units": "metres",
    "transform_library": "pyproj"
  },
  "features": [
    {
      "type": "Feature",
      "id": "derived:pilot-road-surfaces",
      "properties": {
        "id": "derived:pilot-road-surfaces",
        "source_dataset": "pilot-roads",
        "source_feature_count": 88,
        "geometry_status": "INFERRED",
        "method": "shapely_unary_union_of_normalized_surfaces"
      },
      "geometry": {
        "type": "MultiPolygon",
        "coordinates": [
          [
            [
              [
                -331.805,
                -238.673
              ],
              [
                -326.576,
                -240.376
              ],
              [
                -323.633,
                -231.335
              ],
              [
                -298.498,
                -239.485
              ],
              [
                -294.957,
                -240.644
              ],
              [
                -291.97,
                -231.521
              ],
              [
                -295.51,
                -230.362
              ],
              [
                -297.02,
                -234.971
              ],
              [
                -295.524,
                -230.357
              ],
              [
                -374.564,
                -204.73
              ],
              [
                -377.525,
                -213.862
              ],
              [
                -374.661,
                -214.79
              ],
              [
                -377.602,
                -223.921
              ],
              [
                -331.805,
                -238.673
              ]
            ]
          ],
          [
            [
              [
                -239.316,
                -214.779
              ],
              [
                -246.123,
                -234.995
              ],
              [
                -237.025,
                -238.058
              ],
              [
                -230.987,
                -220.129
              ],
              [
                -225.093,
                -221.993
              ],
              [
                -223.585,
                -217.226
              ],
              [
                -229.391,
                -215.389
              ],
              [
                -216.991,
                -178.606
              ],
              [
                -210.377,
                -159.642
              ],
              [
                -210.365,
                -159.607
              ],
              [
                -208.753,
                -154.87
              ],
              [
                -203.11,
                -156.843
              ],
              [
                -120.218,
                -185.761
              ],
              [
                -120.194,
                -185.769
              ],
              [
                -33.384,
                -215.295
              ],
              [
                -27.982,
                -217.139
              ],
              [
                -34.742,
                -236.772
              ],
              [
                -25.665,
                -239.897
              ],
              [
                -17.861,
                -217.234
              ],
              [
                -22.399,
                -215.671
              ],
              [
                -16.333,
                -217.71
              ],
              [
                -4.365,
                -182.099
              ],
              [
                1.218,
                -165.477
              ],
              [
                2.736,
                -161.147
              ],
              [
                6.966,
                -162.6
              ],
              [
                49.852,
                -177.79
              ],
              [
                48.569,
                -181.887
              ],
              [
                48.563,
                -181.905
              ],
              [
                46.688,
                -188.065
              ],
              [
                29.956,
                -238.076
              ],
              [
                34.698,
                -239.662
              ],
              [
                51.44,
                -189.619
              ],
              [
                51.461,
                -189.554
              ],
              [
                53.344,
                -183.371
              ],
              [
                54.585,
                -179.409
              ],
              [
                87.192,
                -190.23
              ],
              [
                89.208,
                -184.155
              ],
              [
                87.206,
                -190.234
              ],
              [
                112.552,
                -198.583
              ],
              [
                116.557,
                -186.426
              ],
              [
                91.224,
                -178.082
              ],
              [
                91.224,
                -178.081
              ],
              [
                56.201,
                -166.459
              ],
              [
                11.211,
                -150.524
              ],
              [
                11.153,
                -150.504
              ],
              [
                6.807,
                -149.011
              ],
              [
                7.836,
                -145.802
              ],
              [
                23.679,
                -98.864
              ],
              [
                24.552,
                -96.283
              ],
              [
                28.273,
                -97.527
              ],
              [
                28.285,
                -97.531
              ],
              [
                63.173,
                -109.047
              ],
              [
                62.484,
                -111.372
              ],
              [
                67.278,
                -112.792
              ],
              [
                67.913,
                -110.65
              ],
              [
                83.305,
                -115.966
              ],
              [
                81.621,
                -120.939
              ],
              [
                80.221,
                -124.956
              ],
              [
                80.222,
                -124.956
              ],
              [
                80.208,
                -124.994
              ],
              [
                70.305,
                -154.932
              ],
              [
                70.242,
                -155.157
              ],
              [
                70.201,
                -155.386
              ],
              [
                70.181,
                -155.619
              ],
              [
                70.182,
                -155.852
              ],
              [
                70.206,
                -156.084
              ],
              [
                70.251,
                -156.313
              ],
              [
                70.313,
                -156.568
              ],
              [
                70.387,
                -156.814
              ],
              [
                70.486,
                -157.051
              ],
              [
                70.608,
                -157.277
              ],
              [
                70.779,
                -157.555
              ],
              [
                70.915,
                -157.755
              ],
              [
                71.07,
                -157.942
              ],
              [
                71.242,
                -158.112
              ],
              [
                71.43,
                -158.265
              ],
              [
                71.719,
                -158.477
              ],
              [
                71.936,
                -158.62
              ],
              [
                72.166,
                -158.74
              ],
              [
                72.408,
                -158.835
              ],
              [
                84.199,
                -162.775
              ],
              [
                84.474,
                -162.85
              ],
              [
                84.755,
                -162.893
              ],
              [
                85.04,
                -162.904
              ],
              [
                85.438,
                -162.896
              ],
              [
                85.7,
                -162.877
              ],
              [
                85.959,
                -162.831
              ],
              [
                86.211,
                -162.758
              ],
              [
                86.46,
                -162.672
              ],
              [
                86.694,
                -162.577
              ],
              [
                86.918,
                -162.459
              ],
              [
                87.156,
                -162.317
              ],
              [
                87.366,
                -162.177
              ],
              [
                87.561,
                -162.017
              ],
              [
                87.739,
                -161.838
              ],
              [
                87.897,
                -161.641
              ],
              [
                88.036,
                -161.43
              ],
              [
                88.152,
                -161.206
              ],
              [
                88.245,
                -160.972
              ],
              [
                98.352,
                -131.19
              ],
              [
                98.413,
                -130.979
              ],
              [
                98.456,
                -130.764
              ],
              [
                98.479,
                -130.546
              ],
              [
                98.483,
                -130.327
              ],
              [
                98.476,
                -129.995
              ],
              [
                98.456,
                -129.734
              ],
              [
                98.409,
                -129.477
              ],
              [
                98.335,
                -129.226
              ],
              [
                98.23,
                -128.926
              ],
              [
                98.133,
                -128.689
              ],
              [
                98.012,
                -128.464
              ],
              [
                97.868,
                -128.251
              ],
              [
                97.704,
                -128.055
              ],
              [
                97.52,
                -127.876
              ],
              [
                97.32,
                -127.717
              ],
              [
                97.052,
                -127.527
              ],
              [
                96.816,
                -127.378
              ],
              [
                96.564,
                -127.256
              ],
              [
                96.301,
                -127.164
              ],
              [
                85.81,
                -124.114
              ],
              [
                86.346,
                -122.574
              ],
              [
                86.353,
                -122.554
              ],
              [
                88.036,
                -117.583
              ],
              [
                96.385,
                -120.405
              ],
              [
                109.466,
                -124.833
              ],
              [
                114.12,
                -126.406
              ],
              [
                116.169,
                -120.343
              ],
              [
                111.516,
                -118.77
              ],
              [
                98.946,
                -114.515
              ],
              [
                93.687,
                -101.605
              ],
              [
                93.588,
                -101.392
              ],
              [
                93.47,
                -101.189
              ],
              [
                93.334,
                -100.999
              ],
              [
                93.18,
                -100.822
              ],
              [
                93.01,
                -100.66
              ],
              [
                92.826,
                -100.515
              ],
              [
                92.629,
                -100.387
              ],
              [
                92.421,
                -100.279
              ],
              [
                92.203,
                -100.191
              ],
              [
                75.879,
                -94.429
              ],
              [
                75.662,
                -94.363
              ],
              [
                75.439,
                -94.318
              ],
              [
                75.213,
                -94.292
              ],
              [
                74.986,
                -94.288
              ],
              [
                69.315,
                -94.427
              ],
              [
                69.073,
                -94.445
              ],
              [
                68.835,
                -94.486
              ],
              [
                68.601,
                -94.55
              ],
              [
                68.375,
                -94.636
              ],
              [
                68.158,
                -94.743
              ],
              [
                67.953,
                -94.871
              ],
              [
                67.761,
                -95.018
              ],
              [
                67.584,
                -95.183
              ],
              [
                67.424,
                -95.365
              ],
              [
                67.282,
                -95.561
              ],
              [
                67.16,
                -95.769
              ],
              [
                67.059,
                -95.989
              ],
              [
                66.979,
                -96.217
              ],
              [
                65.315,
                -101.844
              ],
              [
                64.997,
                -102.91
              ],
              [
                30.297,
                -91.456
              ],
              [
                25.082,
                -89.712
              ],
              [
                26.366,
                -85.904
              ],
              [
                36.009,
                -57.37
              ],
              [
                37.69,
                -52.393
              ],
              [
                33.799,
                -51.079
              ],
              [
                37.69,
                -52.392
              ],
              [
                48.904,
                -19.178
              ],
              [
                60.477,
                14.829
              ],
              [
                61.387,
                17.501
              ],
              [
                66.34,
                15.797
              ],
              [
                105.924,
                2.2
              ],
              [
                105.398,
                0.442
              ],
              [
                104.151,
                -3.538
              ],
              [
                104.09,
                -3.774
              ],
              [
                104.051,
                -4.014
              ],
              [
                104.037,
                -4.257
              ],
              [
                104.046,
                -4.5
              ],
              [
                104.078,
                -4.741
              ],
              [
                104.134,
                -4.978
              ],
              [
                104.213,
                -5.208
              ],
              [
                104.314,
                -5.43
              ],
              [
                107.06,
                -10.765
              ],
              [
                107.178,
                -10.971
              ],
              [
                107.316,
                -11.164
              ],
              [
                107.47,
                -11.343
              ],
              [
                107.642,
                -11.507
              ],
              [
                107.828,
                -11.654
              ],
              [
                108.027,
                -11.783
              ],
              [
                108.237,
                -11.892
              ],
              [
                108.457,
                -11.981
              ],
              [
                115.27,
                -14.367
              ],
              [
                116.923,
                -9.647
              ],
              [
                111.05,
                -7.591
              ],
              [
                109.229,
                -4.054
              ],
              [
                110.174,
                -1.038
              ],
              [
                110.184,
                -1.007
              ],
              [
                110.657,
                0.575
              ],
              [
                114.049,
                -0.591
              ],
              [
                115.177,
                -0.978
              ],
              [
                116.207,
                2.022
              ],
              [
                117.433,
                1.569
              ],
              [
                118.592,
                4.705
              ],
              [
                113.902,
                6.438
              ],
              [
                113.833,
                6.251
              ],
              [
                110.249,
                7.482
              ],
              [
                68.42,
                21.85
              ],
              [
                64.947,
                23.045
              ],
              [
                65.661,
                25.176
              ],
              [
                81.326,
                71.777
              ],
              [
                82.577,
                75.426
              ],
              [
                85.855,
                74.309
              ],
              [
                114.73,
                64.432
              ],
              [
                118.873,
                76.543
              ],
              [
                89.994,
                86.421
              ],
              [
                89.986,
                86.424
              ],
              [
                86.655,
                87.559
              ],
              [
                87.963,
                91.529
              ],
              [
                102.764,
                135.426
              ],
              [
                105.206,
                142.67
              ],
              [
                108.025,
                150.857
              ],
              [
                115.78,
                173.377
              ],
              [
                103.678,
                177.545
              ],
              [
                95.922,
                155.024
              ],
              [
                94.125,
                149.805
              ],
              [
                90.43,
                151.037
              ],
              [
                5.489,
                179.396
              ],
              [
                3.462,
                173.326
              ],
              [
                88.404,
                144.966
              ],
              [
                92.061,
                143.746
              ],
              [
                90.635,
                139.516
              ],
              [
                75.826,
                95.598
              ],
              [
                75.812,
                95.556
              ],
              [
                74.54,
                91.696
              ],
              [
                70.95,
                92.925
              ],
              [
                70.924,
                92.933
              ],
              [
                30.899,
                106.444
              ],
              [
                -8.419,
                119.718
              ],
              [
                -20.199,
                123.692
              ],
              [
                -57.945,
                136.431
              ],
              [
                -99.678,
                150.52
              ],
              [
                -103.383,
                151.773
              ],
              [
                -102.26,
                155.091
              ],
              [
                -95.456,
                175.218
              ],
              [
                -107.582,
                179.317
              ],
              [
                -114.385,
                159.191
              ],
              [
                -115.491,
                155.923
              ],
              [
                -118.285,
                156.893
              ],
              [
                -118.415,
                156.937
              ],
              [
                -156.21,
                169.157
              ],
              [
                -156.608,
                169.271
              ],
              [
                -160.771,
                170.325
              ],
              [
                -161.271,
                170.431
              ],
              [
                -166.632,
                171.34
              ],
              [
                -167.516,
                171.427
              ],
              [
                -169.0,
                171.47
              ],
              [
                -168.888,
                173.348
              ],
              [
                -168.052,
                177.181
              ],
              [
                -174.305,
                178.546
              ],
              [
                -175.194,
                174.47
              ],
              [
                -175.238,
                174.226
              ],
              [
                -175.262,
                173.979
              ],
              [
                -175.401,
                171.659
              ],
              [
                -181.054,
                171.831
              ],
              [
                -181.204,
                171.833
              ],
              [
                -200.67,
                171.967
              ],
              [
                -200.692,
                171.967
              ],
              [
                -226.157,
                172.053
              ],
              [
                -230.306,
                172.312
              ],
              [
                -235.419,
                172.934
              ],
              [
                -235.08,
                173.972
              ],
              [
                -233.953,
                177.437
              ],
              [
                -240.039,
                179.417
              ],
              [
                -241.165,
                175.953
              ],
              [
                -241.845,
                173.869
              ],
              [
                -245.621,
                174.598
              ],
              [
                -254.855,
                177.015
              ],
              [
                -271.417,
                181.888
              ],
              [
                -280.432,
                184.889
              ],
              [
                -284.474,
                172.744
              ],
              [
                -277.802,
                170.523
              ],
              [
                -279.0,
                167.05
              ],
              [
                -279.872,
                164.706
              ],
              [
                -277.529,
                163.834
              ],
              [
                -280.009,
                164.152
              ],
              [
                -280.737,
                158.481
              ],
              [
                -280.755,
                158.247
              ],
              [
                -280.752,
                158.013
              ],
              [
                -280.727,
                157.779
              ],
              [
                -280.68,
                157.549
              ],
              [
                -280.284,
                155.986
              ],
              [
                -280.21,
                155.746
              ],
              [
                -280.113,
                155.515
              ],
              [
                -279.993,
                155.295
              ],
              [
                -279.852,
                155.088
              ],
              [
                -278.871,
                153.796
              ],
              [
                -278.707,
                153.601
              ],
              [
                -278.524,
                153.424
              ],
              [
                -278.323,
                153.266
              ],
              [
                -278.107,
                153.13
              ],
              [
                -277.879,
                153.016
              ],
              [
                -277.64,
                152.926
              ],
              [
                -272.189,
                151.186
              ],
              [
                -265.224,
                148.968
              ],
              [
                -248.232,
                142.96
              ],
              [
                -246.565,
                147.674
              ],
              [
                -260.955,
                152.762
              ],
              [
                -258.994,
                157.304
              ],
              [
                -261.29,
                158.295
              ],
              [
                -258.979,
                157.34
              ],
              [
                -258.131,
                159.391
              ],
              [
                -258.096,
                159.481
              ],
              [
                -256.363,
                164.179
              ],
              [
                -248.66,
                162.162
              ],
              [
                -248.252,
                162.07
              ],
              [
                -241.893,
                160.842
              ],
              [
                -240.68,
                167.126
              ],
              [
                -241.452,
                160.773
              ],
              [
                -231.664,
                159.583
              ],
              [
                -231.29,
                159.548
              ],
              [
                -226.765,
                159.266
              ],
              [
                -226.389,
                159.254
              ],
              [
                -205.568,
                159.183
              ],
              [
                -206.768,
                155.714
              ],
              [
                -215.875,
                129.377
              ],
              [
                -213.512,
                128.56
              ],
              [
                -214.322,
                126.194
              ],
              [
                -196.481,
                120.088
              ],
              [
                -196.478,
                120.087
              ],
              [
                -182.033,
                115.16
              ],
              [
                -181.799,
                115.093
              ],
              [
                -181.559,
                115.049
              ],
              [
                -181.316,
                115.028
              ],
              [
                -181.072,
                115.031
              ],
              [
                -180.83,
                115.058
              ],
              [
                -180.591,
                115.109
              ],
              [
                -180.358,
                115.182
              ],
              [
                -180.134,
                115.278
              ],
              [
                -179.92,
                115.395
              ],
              [
                -179.718,
                115.533
              ],
              [
                -179.531,
                115.689
              ],
              [
                -179.36,
                115.863
              ],
              [
                -179.207,
                116.053
              ],
              [
                -179.073,
                116.257
              ],
              [
                -178.959,
                116.473
              ],
              [
                -178.868,
                116.699
              ],
              [
                -170.471,
                140.619
              ],
              [
                -170.401,
                140.855
              ],
              [
                -170.354,
                141.098
              ],
              [
                -170.332,
                141.343
              ],
              [
                -170.334,
                141.59
              ],
              [
                -170.36,
                141.835
              ],
              [
                -170.41,
                142.077
              ],
              [
                -170.484,
                142.312
              ],
              [
                -170.558,
                142.512
              ],
              [
                -170.634,
                142.695
              ],
              [
                -170.724,
                142.871
              ],
              [
                -170.83,
                143.06
              ],
              [
                -170.975,
                143.289
              ],
              [
                -171.144,
                143.5
              ],
              [
                -171.335,
                143.692
              ],
              [
                -171.57,
                143.904
              ],
              [
                -171.743,
                144.047
              ],
              [
                -171.928,
                144.173
              ],
              [
                -172.123,
                144.282
              ],
              [
                -172.327,
                144.373
              ],
              [
                -185.508,
                149.577
              ],
              [
                -185.737,
                149.655
              ],
              [
                -185.972,
                149.71
              ],
              [
                -186.211,
                149.742
              ],
              [
                -186.453,
                149.751
              ],
              [
                -186.694,
                149.737
              ],
              [
                -186.933,
                149.7
              ],
              [
                -187.166,
                149.639
              ],
              [
                -187.653,
                149.489
              ],
              [
                -187.875,
                149.408
              ],
              [
                -188.089,
                149.307
              ],
              [
                -188.292,
                149.186
              ],
              [
                -188.483,
                149.046
              ],
              [
                -188.808,
                148.783
              ],
              [
                -188.982,
                148.629
              ],
              [
                -189.141,
                148.459
              ],
              [
                -189.284,
                148.275
              ],
              [
                -189.409,
                148.078
              ],
              [
                -189.515,
                147.871
              ],
              [
                -189.601,
                147.655
              ],
              [
                -197.22,
                125.625
              ],
              [
                -210.33,
                130.113
              ],
              [
                -202.042,
                154.08
              ],
              [
                -200.283,
                159.164
              ],
              [
                -181.366,
                159.034
              ],
              [
                -172.777,
                158.774
              ],
              [
                -172.584,
                165.159
              ],
              [
                -172.769,
                158.774
              ],
              [
                -168.332,
                158.646
              ],
              [
                -163.664,
                157.854
              ],
              [
                -159.951,
                156.914
              ],
              [
                -122.419,
                144.779
              ],
              [
                -119.597,
                143.799
              ],
              [
                -120.841,
                140.13
              ],
              [
                -136.53,
                93.987
              ],
              [
                -136.567,
                93.878
              ],
              [
                -138.18,
                88.837
              ],
              [
                -140.03,
                83.375
              ],
              [
                -150.779,
                51.629
              ],
              [
                -150.82,
                51.504
              ],
              [
                -151.628,
                48.944
              ],
              [
                -153.64,
                42.584
              ],
              [
                -158.44,
                28.745
              ],
              [
                -162.727,
                16.411
              ],
              [
                -156.681,
                14.31
              ],
              [
                -161.231,
                15.841
              ],
              [
                -173.165,
                -19.625
              ],
              [
                -173.182,
                -19.677
              ],
              [
                -175.195,
                -25.891
              ],
              [
                -176.712,
                -25.384
              ],
              [
                -178.548,
                -30.878
              ],
              [
                -194.134,
                -77.443
              ],
              [
                -195.334,
                -81.027
              ],
              [
                -198.629,
                -79.929
              ],
              [
                -203.708,
                -78.087
              ],
              [
                -203.782,
                -78.061
              ],
              [
                -241.215,
                -65.004
              ],
              [
                -249.082,
                -61.03
              ],
              [
                -254.447,
                -56.926
              ],
              [
                -254.454,
                -56.92
              ],
              [
                -268.464,
                -46.231
              ],
              [
                -266.964,
                -44.404
              ],
              [
                -266.913,
                -44.34
              ],
              [
                -264.342,
                -40.989
              ],
              [
                -263.836,
                -40.785
              ],
              [
                -263.104,
                -41.062
              ],
              [
                -249.448,
                -51.884
              ],
              [
                -249.437,
                -51.893
              ],
              [
                -246.739,
                -54.007
              ],
              [
                -246.533,
                -54.152
              ],
              [
                -246.314,
                -54.276
              ],
              [
                -243.588,
                -55.638
              ],
              [
                -243.529,
                -55.667
              ],
              [
                -233.405,
                -60.401
              ],
              [
                -233.17,
                -60.497
              ],
              [
                -232.926,
                -60.568
              ],
              [
                -232.676,
                -60.615
              ],
              [
                -232.423,
                -60.635
              ],
              [
                -228.458,
                -60.758
              ],
              [
                -228.38,
                -58.259
              ],
              [
                -226.575,
                -59.989
              ],
              [
                -224.346,
                -57.662
              ],
              [
                -224.194,
                -57.488
              ],
              [
                -224.059,
                -57.302
              ],
              [
                -223.942,
                -57.104
              ],
              [
                -223.844,
                -56.895
              ],
              [
                -223.765,
                -56.679
              ],
              [
                -223.706,
                -56.457
              ],
              [
                -218.621,
                -32.763
              ],
              [
                -218.592,
                -32.607
              ],
              [
                -218.421,
                -31.457
              ],
              [
                -218.397,
                -31.214
              ],
              [
                -218.396,
                -30.97
              ],
              [
                -218.42,
                -30.727
              ],
              [
                -218.562,
                -29.752
              ],
              [
                -218.609,
                -29.515
              ],
              [
                -218.678,
                -29.283
              ],
              [
                -218.769,
                -29.059
              ],
              [
                -218.882,
                -28.845
              ],
              [
                -219.445,
                -27.889
              ],
              [
                -219.566,
                -27.702
              ],
              [
                -219.704,
                -27.526
              ],
              [
                -219.857,
                -27.364
              ],
              [
                -220.024,
                -27.215
              ],
              [
                -220.934,
                -26.477
              ],
              [
                -221.108,
                -26.348
              ],
              [
                -221.293,
                -26.234
              ],
              [
                -221.487,
                -26.137
              ],
              [
                -236.327,
                -19.492
              ],
              [
                -236.595,
                -19.39
              ],
              [
                -254.86,
                -13.612
              ],
              [
                -264.469,
                -10.575
              ],
              [
                -270.446,
                -8.676
              ],
              [
                -274.891,
                -7.267
              ],
              [
                -272.446,
                0.989
              ],
              [
                -272.39,
                1.213
              ],
              [
                -272.356,
                1.442
              ],
              [
                -272.343,
                1.673
              ],
              [
                -272.351,
                1.904
              ],
              [
                -272.381,
                2.133
              ],
              [
                -272.432,
                2.359
              ],
              [
                -272.503,
                2.579
              ],
              [
                -273.852,
                6.165
              ],
              [
                -273.948,
                6.386
              ],
              [
                -274.064,
                6.597
              ],
              [
                -274.2,
                6.796
              ],
              [
                -274.355,
                6.98
              ],
              [
                -274.527,
                7.149
              ],
              [
                -277.105,
                9.451
              ],
              [
                -277.303,
                9.611
              ],
              [
                -277.517,
                9.749
              ],
              [
                -277.743,
                9.866
              ],
              [
                -277.98,
                9.958
              ],
              [
                -312.612,
                21.487
              ],
              [
                -312.868,
                21.558
              ],
              [
                -313.129,
                21.6
              ],
              [
                -313.394,
                21.615
              ],
              [
                -313.659,
                21.602
              ],
              [
                -314.845,
                21.479
              ],
              [
                -315.1,
                21.44
              ],
              [
                -315.348,
                21.374
              ],
              [
                -315.589,
                21.284
              ],
              [
                -315.819,
                21.169
              ],
              [
                -316.036,
                21.031
              ],
              [
                -316.238,
                20.871
              ],
              [
                -316.422,
                20.692
              ],
              [
                -316.587,
                20.494
              ],
              [
                -317.132,
                19.768
              ],
              [
                -317.29,
                19.532
              ],
              [
                -317.42,
                19.279
              ],
              [
                -317.52,
                19.013
              ],
              [
                -318.247,
                16.686
              ],
              [
                -322.078,
                5.116
              ],
              [
                -326.573,
                -7.744
              ],
              [
                -327.416,
                -10.153
              ],
              [
                -360.337,
                1.035
              ],
              [
                -362.565,
                1.8
              ],
              [
                -360.921,
                6.499
              ],
              [
                -341.873,
                60.87
              ],
              [
                -337.022,
                74.705
              ],
              [
                -341.606,
                76.312
              ],
              [
                -337.009,
                74.743
              ],
              [
                -332.321,
                88.481
              ],
              [
                -332.312,
                88.51
              ],
              [
                -326.902,
                104.698
              ],
              [
                -330.803,
                106.001
              ],
              [
                -326.902,
                104.699
              ],
              [
                -323.218,
                115.734
              ],
              [
                -321.7,
                115.228
              ],
              [
                -301.685,
                175.207
              ],
              [
                -301.086,
                177.006
              ],
              [
                -313.231,
                181.049
              ],
              [
                -313.829,
                179.253
              ],
              [
                -314.28,
                177.9
              ],
              [
                -322.427,
                180.659
              ],
              [
                -346.02,
                110.965
              ],
              [
                -341.46,
                109.421
              ],
              [
                -346.054,
                110.859
              ],
              [
                -351.098,
                94.744
              ],
              [
                -355.426,
                81.556
              ],
              [
                -370.509,
                35.622
              ],
              [
                -378.399,
                12.507
              ],
              [
                -378.709,
                11.599
              ],
              [
                -370.309,
                8.734
              ],
              [
                -371.659,
                4.877
              ],
              [
                -372.235,
                5.069
              ],
              [
                -376.286,
                -7.073
              ],
              [
                -375.893,
                -7.204
              ],
              [
                -377.141,
                -10.759
              ],
              [
                -377.151,
                -10.789
              ],
              [
                -378.942,
                -16.003
              ],
              [
                -369.863,
                -19.122
              ],
              [
                -368.077,
                -13.923
              ],
              [
                -366.799,
                -10.28
              ],
              [
                -364.483,
                -11.075
              ],
              [
                -364.465,
                -11.081
              ],
              [
                -329.234,
                -23.054
              ],
              [
                -319.682,
                -26.342
              ],
              [
                -314.677,
                -28.248
              ],
              [
                -308.909,
                -31.593
              ],
              [
                -310.518,
                -34.624
              ],
              [
                -310.601,
                -34.796
              ],
              [
                -311.135,
                -36.02
              ],
              [
                -311.957,
                -37.854
              ],
              [
                -315.112,
                -44.616
              ],
              [
                -310.581,
                -46.73
              ],
              [
                -307.418,
                -39.951
              ],
              [
                -307.402,
                -39.917
              ],
              [
                -306.567,
                -38.053
              ],
              [
                -306.557,
                -38.031
              ],
              [
                -306.057,
                -36.884
              ],
              [
                -304.754,
                -34.431
              ],
              [
                -289.226,
                -46.071
              ],
              [
                -284.428,
                -50.174
              ],
              [
                -284.131,
                -50.412
              ],
              [
                -278.39,
                -54.759
              ],
              [
                -262.221,
                -67.094
              ],
              [
                -256.388,
                -71.557
              ],
              [
                -255.901,
                -71.895
              ],
              [
                -255.385,
                -72.187
              ],
              [
                -246.606,
                -76.622
              ],
              [
                -243.719,
                -70.907
              ],
              [
                -245.827,
                -76.952
              ],
              [
                -208.035,
                -90.134
              ],
              [
                -202.913,
                -91.99
              ],
              [
                -202.756,
                -92.045
              ],
              [
                -197.975,
                -93.639
              ],
              [
                -199.059,
                -96.716
              ],
              [
                -199.073,
                -96.757
              ],
              [
                -214.176,
                -140.916
              ],
              [
                -214.183,
                -140.938
              ],
              [
                -216.8,
                -148.714
              ],
              [
                -219.447,
                -156.498
              ],
              [
                -226.06,
                -175.458
              ],
              [
                -221.513,
                -177.044
              ],
              [
                -226.077,
                -175.505
              ],
              [
                -239.316,
                -214.779
              ]
            ],
            [
              [
                -62.039,
                124.303
              ],
              [
                -57.945,
                136.431
              ],
              [
                -62.038,
                124.303
              ],
              [
                -24.291,
                111.563
              ],
              [
                -12.511,
                107.589
              ],
              [
                26.805,
                94.317
              ],
              [
                66.818,
                80.81
              ],
              [
                70.463,
                79.562
              ],
              [
                69.211,
                75.909
              ],
              [
                69.199,
                75.873
              ],
              [
                53.527,
                29.251
              ],
              [
                53.524,
                29.244
              ],
              [
                52.841,
                27.204
              ],
              [
                49.03,
                28.512
              ],
              [
                49.019,
                28.515
              ],
              [
                5.2,
                43.387
              ],
              [
                4.174,
                40.364
              ],
              [
                5.141,
                43.406
              ],
              [
                -14.613,
                49.688
              ],
              [
                -35.727,
                57.286
              ],
              [
                -35.853,
                57.328
              ],
              [
                -61.163,
                65.262
              ],
              [
                -86.152,
                74.208
              ],
              [
                -87.22,
                71.224
              ],
              [
                -86.182,
                74.219
              ],
              [
                -121.914,
                86.604
              ],
              [
                -125.092,
                87.738
              ],
              [
                -124.393,
                89.922
              ],
              [
                -108.72,
                136.018
              ],
              [
                -107.489,
                139.65
              ],
              [
                -103.774,
                138.394
              ],
              [
                -62.039,
                124.303
              ]
            ],
            [
              [
                -181.996,
                -81.507
              ],
              [
                -166.408,
                -34.937
              ],
              [
                -165.617,
                -32.568
              ],
              [
                -162.266,
                -33.744
              ],
              [
                -162.226,
                -33.758
              ],
              [
                -120.383,
                -47.827
              ],
              [
                -119.431,
                -44.996
              ],
              [
                -120.379,
                -47.829
              ],
              [
                -93.816,
                -56.719
              ],
              [
                -77.851,
                -62.143
              ],
              [
                -77.828,
                -62.151
              ],
              [
                -49.069,
                -71.68
              ],
              [
                -26.329,
                -79.277
              ],
              [
                9.012,
                -91.088
              ],
              [
                12.412,
                -92.225
              ],
              [
                11.552,
                -94.769
              ],
              [
                -4.307,
                -141.755
              ],
              [
                -4.338,
                -141.848
              ],
              [
                -5.786,
                -146.367
              ],
              [
                -9.071,
                -145.234
              ],
              [
                -9.11,
                -145.22
              ],
              [
                -91.048,
                -117.73
              ],
              [
                -101.949,
                -114.032
              ],
              [
                -147.605,
                -98.525
              ],
              [
                -149.149,
                -103.07
              ],
              [
                -147.178,
                -96.981
              ],
              [
                -179.672,
                -86.461
              ],
              [
                -183.231,
                -85.195
              ],
              [
                -181.996,
                -81.507
              ]
            ],
            [
              [
                -341.966,
                91.782
              ],
              [
                -341.946,
                91.845
              ],
              [
                -336.899,
                107.971
              ],
              [
                -333.149,
                119.049
              ],
              [
                -332.324,
                118.773
              ],
              [
                -336.008,
                107.739
              ],
              [
                -341.412,
                91.567
              ],
              [
                -346.095,
                77.844
              ],
              [
                -350.933,
                64.045
              ],
              [
                -353.14,
                57.745
              ],
              [
                -346.305,
                78.561
              ],
              [
                -341.966,
                91.782
              ]
            ],
            [
              [
                -266.844,
                -36.607
              ],
              [
                -267.085,
                -36.719
              ],
              [
                -267.314,
                -36.857
              ],
              [
                -267.526,
                -37.018
              ],
              [
                -267.72,
                -37.201
              ],
              [
                -267.893,
                -37.404
              ],
              [
                -270.855,
                -41.263
              ],
              [
                -272.448,
                -43.203
              ],
              [
                -276.254,
                -40.322
              ],
              [
                -281.063,
                -36.209
              ],
              [
                -281.384,
                -35.952
              ],
              [
                -299.903,
                -22.071
              ],
              [
                -300.531,
                -21.656
              ],
              [
                -301.828,
                -20.903
              ],
              [
                -308.703,
                -16.916
              ],
              [
                -309.161,
                -16.675
              ],
              [
                -309.636,
                -16.471
              ],
              [
                -315.223,
                -14.343
              ],
              [
                -315.419,
                -14.272
              ],
              [
                -322.685,
                -11.771
              ],
              [
                -321.853,
                -9.394
              ],
              [
                -318.157,
                1.18
              ],
              [
                -278.739,
                -11.293
              ],
              [
                -271.957,
                -13.442
              ],
              [
                -265.981,
                -15.341
              ],
              [
                -265.977,
                -15.342
              ],
              [
                -258.83,
                -17.601
              ],
              [
                -263.02,
                -29.485
              ],
              [
                -263.088,
                -29.713
              ],
              [
                -263.134,
                -29.946
              ],
              [
                -263.158,
                -30.182
              ],
              [
                -263.16,
                -30.42
              ],
              [
                -263.044,
                -33.221
              ],
              [
                -263.023,
                -33.457
              ],
              [
                -262.979,
                -33.691
              ],
              [
                -262.914,
                -33.919
              ],
              [
                -262.827,
                -34.14
              ],
              [
                -262.72,
                -34.352
              ],
              [
                -262.593,
                -34.552
              ],
              [
                -262.448,
                -34.74
              ],
              [
                -262.285,
                -34.913
              ],
              [
                -260.521,
                -36.621
              ],
              [
                -260.319,
                -36.797
              ],
              [
                -249.654,
                -45.111
              ],
              [
                -249.475,
                -45.238
              ],
              [
                -249.286,
                -45.349
              ],
              [
                -249.088,
                -45.443
              ],
              [
                -246.22,
                -46.652
              ],
              [
                -245.979,
                -46.739
              ],
              [
                -245.73,
                -46.801
              ],
              [
                -245.477,
                -46.838
              ],
              [
                -245.22,
                -46.848
              ],
              [
                -244.965,
                -46.832
              ],
              [
                -244.712,
                -46.789
              ],
              [
                -244.464,
                -46.721
              ],
              [
                -242.573,
                -46.096
              ],
              [
                -242.333,
                -46.003
              ],
              [
                -242.104,
                -45.885
              ],
              [
                -241.888,
                -45.745
              ],
              [
                -241.688,
                -45.583
              ],
              [
                -241.506,
                -45.402
              ],
              [
                -241.343,
                -45.203
              ],
              [
                -241.202,
                -44.988
              ],
              [
                -240.064,
                -43.05
              ],
              [
                -239.951,
                -42.834
              ],
              [
                -239.86,
                -42.609
              ],
              [
                -239.791,
                -42.376
              ],
              [
                -235.63,
                -25.283
              ],
              [
                -223.83,
                -30.567
              ],
              [
                -223.525,
                -30.814
              ],
              [
                -223.439,
                -30.96
              ],
              [
                -223.421,
                -31.085
              ],
              [
                -223.526,
                -31.791
              ],
              [
                -228.446,
                -54.714
              ],
              [
                -229.416,
                -55.726
              ],
              [
                -231.754,
                -55.654
              ],
              [
                -241.382,
                -51.151
              ],
              [
                -243.853,
                -49.916
              ],
              [
                -246.347,
                -47.961
              ],
              [
                -260.303,
                -36.901
              ],
              [
                -260.513,
                -36.752
              ],
              [
                -260.737,
                -36.625
              ],
              [
                -260.973,
                -36.522
              ],
              [
                -262.982,
                -35.763
              ],
              [
                -263.203,
                -35.691
              ],
              [
                -263.43,
                -35.64
              ],
              [
                -263.661,
                -35.61
              ],
              [
                -263.893,
                -35.602
              ],
              [
                -264.125,
                -35.616
              ],
              [
                -264.355,
                -35.65
              ],
              [
                -264.58,
                -35.706
              ],
              [
                -264.8,
                -35.783
              ],
              [
                -266.844,
                -36.607
              ]
            ],
            [
              [
                -280.05,
                5.377
              ],
              [
                -278.315,
                3.829
              ],
              [
                -277.478,
                1.604
              ],
              [
                -279.658,
                -5.758
              ],
              [
                -316.546,
                5.915
              ],
              [
                -313.492,
                15.141
              ],
              [
                -315.865,
                15.927
              ],
              [
                -313.479,
                15.181
              ],
              [
                -313.104,
                16.381
              ],
              [
                -280.05,
                5.377
              ]
            ],
            [
              [
                -244.562,
                -40.836
              ],
              [
                -245.037,
                -41.644
              ],
              [
                -245.143,
                -41.68
              ],
              [
                -246.841,
                -40.964
              ],
              [
                -257.139,
                -32.936
              ],
              [
                -258.089,
                -32.016
              ],
              [
                -258.144,
                -30.694
              ],
              [
                -254.06,
                -19.109
              ],
              [
                -240.331,
                -23.453
              ],
              [
                -244.562,
                -40.836
              ]
            ],
            [
              [
                -361.885,
                32.783
              ],
              [
                -361.902,
                32.735
              ],
              [
                -365.95,
                34.117
              ],
              [
                -361.885,
                32.783
              ]
            ],
            [
              [
                -8.838,
                -155.47
              ],
              [
                -10.875,
                -161.282
              ],
              [
                -10.902,
                -161.361
              ],
              [
                -16.499,
                -178.023
              ],
              [
                -27.435,
                -210.563
              ],
              [
                -31.319,
                -209.237
              ],
              [
                -31.322,
                -209.236
              ],
              [
                -118.121,
                -179.714
              ],
              [
                -201.001,
                -150.801
              ],
              [
                -206.702,
                -148.808
              ],
              [
                -205.088,
                -144.011
              ],
              [
                -189.997,
                -99.884
              ],
              [
                -188.898,
                -96.765
              ],
              [
                -183.875,
                -98.552
              ],
              [
                -183.702,
                -98.61
              ],
              [
                -151.12,
                -109.159
              ],
              [
                -150.627,
                -107.637
              ],
              [
                -105.034,
                -123.123
              ],
              [
                -94.124,
                -126.824
              ],
              [
                -94.109,
                -126.829
              ],
              [
                -12.183,
                -154.315
              ],
              [
                -8.838,
                -155.47
              ]
            ],
            [
              [
                -275.562,
                157.706
              ],
              [
                -275.717,
                158.317
              ],
              [
                -275.087,
                163.229
              ],
              [
                -274.304,
                165.334
              ],
              [
                -274.283,
                165.39
              ],
              [
                -273.03,
                169.021
              ],
              [
                -261.192,
                165.537
              ],
              [
                -262.771,
                161.256
              ],
              [
                -263.588,
                159.278
              ],
              [
                -265.679,
                154.433
              ],
              [
                -265.711,
                154.37
              ],
              [
                -270.67,
                155.949
              ],
              [
                -275.367,
                157.449
              ],
              [
                -275.562,
                157.706
              ]
            ],
            [
              [
                -117.371,
                -32.395
              ],
              [
                -119.828,
                -38.993
              ],
              [
                -120.594,
                -41.004
              ],
              [
                -160.166,
                -27.699
              ],
              [
                -165.125,
                -25.958
              ],
              [
                -164.058,
                -22.66
              ],
              [
                -152.147,
                12.734
              ],
              [
                -150.636,
                12.209
              ],
              [
                -146.347,
                24.548
              ],
              [
                -141.518,
                38.473
              ],
              [
                -141.462,
                38.64
              ],
              [
                -139.423,
                45.088
              ],
              [
                -138.634,
                47.586
              ],
              [
                -127.906,
                79.269
              ],
              [
                -127.097,
                81.657
              ],
              [
                -124.051,
                80.571
              ],
              [
                -124.024,
                80.562
              ],
              [
                -90.389,
                68.904
              ],
              [
                -90.959,
                66.652
              ],
              [
                -90.98,
                66.562
              ],
              [
                -91.687,
                63.259
              ],
              [
                -91.726,
                63.029
              ],
              [
                -91.742,
                62.796
              ],
              [
                -91.737,
                62.563
              ],
              [
                -91.71,
                62.331
              ],
              [
                -91.661,
                62.103
              ],
              [
                -91.592,
                61.88
              ],
              [
                -91.502,
                61.665
              ],
              [
                -89.554,
                57.554
              ],
              [
                -89.409,
                57.29
              ],
              [
                -89.233,
                57.046
              ],
              [
                -86.503,
                53.691
              ],
              [
                -86.342,
                53.513
              ],
              [
                -86.166,
                53.35
              ],
              [
                -85.974,
                53.206
              ],
              [
                -85.77,
                53.08
              ],
              [
                -85.555,
                52.974
              ],
              [
                -85.33,
                52.89
              ],
              [
                -71.065,
                48.297
              ],
              [
                -70.837,
                48.235
              ],
              [
                -70.604,
                48.196
              ],
              [
                -70.368,
                48.178
              ],
              [
                -70.132,
                48.182
              ],
              [
                -69.897,
                48.209
              ],
              [
                -69.665,
                48.259
              ],
              [
                -68.153,
                48.655
              ],
              [
                -67.945,
                48.719
              ],
              [
                -67.744,
                48.801
              ],
              [
                -67.551,
                48.9
              ],
              [
                -66.132,
                49.707
              ],
              [
                -65.929,
                49.836
              ],
              [
                -65.739,
                49.983
              ],
              [
                -65.565,
                50.149
              ],
              [
                -65.406,
                50.33
              ],
              [
                -65.267,
                50.526
              ],
              [
                -65.146,
                50.734
              ],
              [
                -62.099,
                56.639
              ],
              [
                -62.069,
                56.701
              ],
              [
                -61.174,
                58.558
              ],
              [
                -37.831,
                51.241
              ],
              [
                -18.772,
                44.383
              ],
              [
                -19.331,
                42.105
              ],
              [
                -20.917,
                35.623
              ],
              [
                -20.965,
                35.368
              ],
              [
                -20.987,
                35.11
              ],
              [
                -20.982,
                34.85
              ],
              [
                -20.95,
                34.593
              ],
              [
                -20.892,
                34.341
              ],
              [
                -20.808,
                34.095
              ],
              [
                -20.08,
                32.285
              ],
              [
                -19.969,
                32.047
              ],
              [
                -19.833,
                31.821
              ],
              [
                -19.675,
                31.611
              ],
              [
                -18.608,
                30.34
              ],
              [
                -18.451,
                30.17
              ],
              [
                -18.28,
                30.016
              ],
              [
                -18.095,
                29.878
              ],
              [
                -17.898,
                29.757
              ],
              [
                -16.182,
                28.813
              ],
              [
                -15.994,
                28.72
              ],
              [
                -15.799,
                28.643
              ],
              [
                -1.151,
                23.538
              ],
              [
                -0.913,
                23.468
              ],
              [
                -0.669,
                23.422
              ],
              [
                -0.422,
                23.4
              ],
              [
                -0.173,
                23.403
              ],
              [
                0.073,
                23.431
              ],
              [
                0.316,
                23.483
              ],
              [
                0.552,
                23.559
              ],
              [
                0.78,
                23.657
              ],
              [
                0.997,
                23.778
              ],
              [
                1.201,
                23.92
              ],
              [
                1.389,
                24.082
              ],
              [
                1.561,
                24.261
              ],
              [
                1.714,
                24.456
              ],
              [
                1.847,
                24.666
              ],
              [
                1.958,
                24.888
              ],
              [
                2.047,
                25.12
              ],
              [
                5.013,
                34.169
              ],
              [
                5.043,
                34.265
              ],
              [
                5.668,
                36.47
              ],
              [
                46.957,
                22.457
              ],
              [
                52.308,
                20.621
              ],
              [
                51.389,
                17.922
              ],
              [
                39.812,
                -16.097
              ],
              [
                44.164,
                -17.578
              ],
              [
                39.808,
                -16.107
              ],
              [
                28.594,
                -49.322
              ],
              [
                26.914,
                -54.297
              ],
              [
                17.27,
                -82.835
              ],
              [
                15.977,
                -86.668
              ],
              [
                11.041,
                -85.018
              ],
              [
                -22.833,
                -73.697
              ],
              [
                -22.849,
                -71.421
              ],
              [
                -22.849,
                -71.401
              ],
              [
                -22.925,
                -66.365
              ],
              [
                -22.939,
                -66.129
              ],
              [
                -22.976,
                -65.896
              ],
              [
                -23.035,
                -65.667
              ],
              [
                -23.476,
                -64.236
              ],
              [
                -23.561,
                -64.001
              ],
              [
                -23.67,
                -63.775
              ],
              [
                -23.8,
                -63.562
              ],
              [
                -23.951,
                -63.363
              ],
              [
                -25.104,
                -61.992
              ],
              [
                -25.277,
                -61.806
              ],
              [
                -25.468,
                -61.638
              ],
              [
                -25.676,
                -61.491
              ],
              [
                -29.01,
                -59.371
              ],
              [
                -29.262,
                -59.23
              ],
              [
                -29.529,
                -59.119
              ],
              [
                -42.716,
                -54.525
              ],
              [
                -42.951,
                -54.456
              ],
              [
                -43.192,
                -54.41
              ],
              [
                -43.436,
                -54.388
              ],
              [
                -43.681,
                -54.39
              ],
              [
                -43.925,
                -54.416
              ],
              [
                -44.165,
                -54.465
              ],
              [
                -45.364,
                -54.776
              ],
              [
                -45.606,
                -54.852
              ],
              [
                -45.838,
                -54.952
              ],
              [
                -46.059,
                -55.074
              ],
              [
                -46.267,
                -55.219
              ],
              [
                -46.459,
                -55.383
              ],
              [
                -46.633,
                -55.566
              ],
              [
                -46.788,
                -55.766
              ],
              [
                -47.563,
                -56.877
              ],
              [
                -47.685,
                -57.07
              ],
              [
                -47.789,
                -57.274
              ],
              [
                -47.873,
                -57.486
              ],
              [
                -47.938,
                -57.704
              ],
              [
                -49.434,
                -63.723
              ],
              [
                -49.437,
                -63.735
              ],
              [
                -49.68,
                -64.735
              ],
              [
                -75.804,
                -56.079
              ],
              [
                -90.973,
                -50.926
              ],
              [
                -92.144,
                -46.759
              ],
              [
                -93.864,
                -39.799
              ],
              [
                -93.933,
                -39.568
              ],
              [
                -94.024,
                -39.344
              ],
              [
                -94.137,
                -39.13
              ],
              [
                -95.369,
                -37.039
              ],
              [
                -95.491,
                -36.853
              ],
              [
                -95.628,
                -36.678
              ],
              [
                -95.78,
                -36.516
              ],
              [
                -95.946,
                -36.369
              ],
              [
                -96.124,
                -36.236
              ],
              [
                -97.667,
                -35.194
              ],
              [
                -97.883,
                -35.064
              ],
              [
                -98.11,
                -34.956
              ],
              [
                -98.347,
                -34.871
              ],
              [
                -109.421,
                -31.545
              ],
              [
                -109.609,
                -31.497
              ],
              [
                -109.8,
                -31.463
              ],
              [
                -114.688,
                -30.79
              ],
              [
                -114.928,
                -30.769
              ],
              [
                -115.169,
                -30.771
              ],
              [
                -115.409,
                -30.796
              ],
              [
                -115.645,
                -30.844
              ],
              [
                -115.876,
                -30.915
              ],
              [
                -116.099,
                -31.008
              ],
              [
                -116.311,
                -31.121
              ],
              [
                -116.512,
                -31.255
              ],
              [
                -116.699,
                -31.407
              ],
              [
                -116.871,
                -31.577
              ],
              [
                -117.025,
                -31.762
              ],
              [
                -117.161,
                -31.961
              ],
              [
                -117.276,
                -32.173
              ],
              [
                -117.371,
                -32.395
              ]
            ],
            [
              [
                -43.265,
                -59.628
              ],
              [
                -31.448,
                -63.746
              ],
              [
                -28.684,
                -65.503
              ],
              [
                -28.105,
                -66.192
              ],
              [
                -27.919,
                -66.797
              ],
              [
                -27.849,
                -71.466
              ],
              [
                -27.845,
                -72.023
              ],
              [
                -44.92,
                -66.319
              ],
              [
                -44.58,
                -64.923
              ],
              [
                -43.265,
                -59.628
              ]
            ],
            [
              [
                -110.674,
                -36.39
              ],
              [
                -100.15,
                -39.551
              ],
              [
                -99.39,
                -40.064
              ],
              [
                -98.63,
                -41.354
              ],
              [
                -96.988,
                -47.997
              ],
              [
                -96.968,
                -48.073
              ],
              [
                -96.707,
                -49.003
              ],
              [
                -115.85,
                -42.596
              ],
              [
                -115.153,
                -40.765
              ],
              [
                -115.146,
                -40.747
              ],
              [
                -113.385,
                -36.017
              ],
              [
                -110.674,
                -36.39
              ]
            ],
            [
              [
                -83.093,
                57.422
              ],
              [
                -85.165,
                59.968
              ],
              [
                -86.621,
                63.04
              ],
              [
                -86.101,
                65.469
              ],
              [
                -85.655,
                67.232
              ],
              [
                -65.944,
                60.175
              ],
              [
                -66.558,
                58.902
              ],
              [
                -69.249,
                53.686
              ],
              [
                -69.738,
                53.409
              ],
              [
                -70.228,
                53.28
              ],
              [
                -83.093,
                57.422
              ]
            ],
            [
              [
                0.246,
                35.678
              ],
              [
                -1.911,
                29.097
              ],
              [
                -13.956,
                33.295
              ],
              [
                -15.079,
                33.913
              ],
              [
                -15.59,
                34.521
              ],
              [
                -15.869,
                35.216
              ],
              [
                -14.474,
                40.916
              ],
              [
                -14.016,
                42.783
              ],
              [
                0.914,
                38.035
              ],
              [
                0.246,
                35.678
              ]
            ],
            [
              [
                -182.765,
                120.693
              ],
              [
                -192.488,
                124.009
              ],
              [
                -185.505,
                144.2
              ],
              [
                -175.851,
                140.389
              ],
              [
                -182.765,
                120.693
              ]
            ],
            [
              [
                75.665,
                -154.651
              ],
              [
                84.199,
                -128.852
              ],
              [
                92.997,
                -131.41
              ],
              [
                84.148,
                -157.486
              ],
              [
                75.665,
                -154.651
              ]
            ],
            [
              [
                70.108,
                -103.265
              ],
              [
                71.257,
                -99.381
              ],
              [
                74.649,
                -99.297
              ],
              [
                89.48,
                -104.532
              ],
              [
                92.684,
                -112.398
              ],
              [
                87.729,
                -110.723
              ],
              [
                69.738,
                -104.509
              ],
              [
                70.107,
                -103.27
              ],
              [
                70.108,
                -103.265
              ]
            ]
          ],
          [
            [
              [
                107.524,
                112.668
              ],
              [
                102.161,
                96.944
              ],
              [
                104.528,
                96.137
              ],
              [
                103.721,
                93.771
              ],
              [
                116.178,
                89.524
              ],
              [
                117.791,
                94.257
              ],
              [
                107.701,
                97.696
              ],
              [
                111.449,
                108.688
              ],
              [
                116.327,
                107.025
              ],
              [
                117.94,
                111.758
              ],
              [
                113.063,
                113.42
              ],
              [
                119.067,
                131.026
              ],
              [
                119.708,
                132.905
              ],
              [
                117.964,
                133.5
              ],
              [
                118.13,
                133.987
              ],
              [
                117.507,
                134.199
              ],
              [
                117.341,
                133.713
              ],
              [
                114.976,
                134.52
              ],
              [
                114.334,
                132.64
              ],
              [
                107.524,
                112.668
              ]
            ]
          ]
        ]
      }
    }
  ]
}
