{
  "type": "FeatureCollection",
  "name": "pilot-open-space-surfaces",
  "schema_version": 2,
  "dataset_id": "pilot-open-space-surfaces",
  "source_id": "source:osm",
  "source_sha256": "09dc9d5aea72e11ad8d84d1c8d2e88132c0a5556e7a2f601824a0a7a74d4adcd",
  "source_retrieved_at": "2026-09-10T13:46:35.844894+00:00",
  "source_crs": "EPSG:4326",
  "projected_crs": "EPSG:32651",
  "local_frame": {
    "origin_wgs84": {
      "longitude": 121.050972,
      "latitude": 14.550806
    },
    "origin_projected": {
      "easting": 289998.297,
      "northing": 1609541.742
    },
    "axes": {
      "x": "east",
      "y": "north",
      "z": "up"
    },
    "units": "metres",
    "transform_library": "pyproj"
  },
  "features": [
    {
      "type": "Feature",
      "id": "derived:pilot-open-space-surfaces",
      "properties": {
        "id": "derived:pilot-open-space-surfaces",
        "source_dataset": "pilot-open-spaces",
        "source_feature_count": 21,
        "geometry_status": "INFERRED",
        "method": "shapely_unary_union_of_normalized_surfaces"
      },
      "geometry": {
        "type": "MultiPolygon",
        "coordinates": [
          [
            [
              [
                -259.589,
                43.443
              ],
              [
                -263.198,
                31.08
              ],
              [
                -249.681,
                23.45
              ],
              [
                -212.537,
                4.441
              ],
              [
                -210.61,
                4.181
              ],
              [
                -176.339,
                -0.395
              ],
              [
                -174.0,
                -0.393
              ],
              [
                -153.619,
                61.117
              ],
              [
                -159.126,
                64.96
              ],
              [
                -185.321,
                81.12
              ],
              [
                -189.033,
                82.015
              ],
              [
                -231.793,
                88.401
              ],
              [
                -237.481,
                86.247
              ],
              [
                -238.348,
                84.44
              ],
              [
                -240.034,
                78.833
              ],
              [
                -276.413,
                90.233
              ],
              [
                -276.901,
                88.643
              ],
              [
                -284.309,
                90.798
              ],
              [
                -283.744,
                92.575
              ],
              [
                -321.859,
                102.706
              ],
              [
                -332.854,
                68.649
              ],
              [
                -309.759,
                54.253
              ],
              [
                -259.589,
                43.443
              ]
            ]
          ],
          [
            [
              [
                -357.415,
                96.924
              ],
              [
                -355.535,
                102.475
              ],
              [
                -354.615,
                105.355
              ],
              [
                -352.858,
                109.18
              ],
              [
                -352.736,
                110.839
              ],
              [
                -373.243,
                117.765
              ],
              [
                -373.311,
                109.787
              ],
              [
                -373.312,
                109.787
              ],
              [
                -373.326,
                108.102
              ],
              [
                -373.49,
                88.962
              ],
              [
                -361.187,
                85.669
              ],
              [
                -357.415,
                96.924
              ]
            ]
          ],
          [
            [
              [
                -363.034,
                136.856
              ],
              [
                -349.184,
                178.159
              ],
              [
                -352.99,
                179.42
              ],
              [
                -372.714,
                179.589
              ],
              [
                -373.051,
                140.176
              ],
              [
                -363.034,
                136.856
              ]
            ]
          ],
          [
            [
              [
                -183.315,
                -106.408
              ],
              [
                -197.524,
                -149.434
              ],
              [
                -111.261,
                -178.779
              ],
              [
                -32.758,
                -205.479
              ],
              [
                -23.254,
                -178.159
              ],
              [
                -22.514,
                -176.03
              ],
              [
                -17.617,
                -161.829
              ],
              [
                -183.315,
                -106.408
              ]
            ]
          ],
          [
            [
              [
                98.113,
                -152.504
              ],
              [
                91.9,
                -170.611
              ],
              [
                96.039,
                -171.952
              ],
              [
                102.196,
                -153.978
              ],
              [
                98.113,
                -152.504
              ]
            ]
          ],
          [
            [
              [
                115.834,
                -42.694
              ],
              [
                54.679,
                -24.426
              ],
              [
                44.699,
                -53.213
              ],
              [
                115.519,
                -79.585
              ],
              [
                115.834,
                -42.694
              ]
            ]
          ],
          [
            [
              [
                21.179,
                -45.675
              ],
              [
                31.004,
                -17.307
              ],
              [
                -50.106,
                14.538
              ],
              [
                -62.314,
                -21.445
              ],
              [
                21.179,
                -45.675
              ]
            ]
          ],
          [
            [
              [
                -87.867,
                177.151
              ],
              [
                -94.99,
                155.809
              ],
              [
                69.214,
                98.542
              ],
              [
                84.662,
                142.775
              ],
              [
                -13.267,
                176.513
              ],
              [
                -87.867,
                177.151
              ]
            ]
          ]
        ]
      }
    }
  ]
}
