{
  "type": "FeatureCollection",
  "name": "pilot-buildings",
  "schema_version": 2,
  "dataset_id": "pilot-buildings",
  "source_id": "source:osm",
  "source_sha256": "09dc9d5aea72e11ad8d84d1c8d2e88132c0a5556e7a2f601824a0a7a74d4adcd",
  "source_retrieved_at": "2026-09-10T13:46:35.844894+00:00",
  "source_crs": "EPSG:4326",
  "projected_crs": "EPSG:32651",
  "local_frame": {
    "origin_wgs84": {
      "longitude": 121.050972,
      "latitude": 14.550806
    },
    "origin_projected": {
      "easting": 289998.297,
      "northing": 1609541.742
    },
    "axes": {
      "x": "east",
      "y": "north",
      "z": "up"
    },
    "units": "metres",
    "transform_library": "pyproj"
  },
  "features": [
    {
      "type": "Feature",
      "id": "osm:relation:13512337",
      "properties": {
        "id": "osm:relation:13512337",
        "source_ids": [
          "osm:relation:13512337",
          "source:osm"
        ],
        "parent_ids": [],
        "name": null,
        "feature_kind": "building_outline",
        "height_m": 0.6,
        "min_height_m": 0.0,
        "levels": null,
        "height_status": "PROCEDURAL",
        "height_method": "diagnostic_type_fallback",
        "height_confidence": 0.15,
        "footprint_status": "VERIFIED_GEOGRAPHIC",
        "footprint_confidence": 0.8,
        "material": null,
        "colour": null,
        "footprint_area_m2": 127.93,
        "tags": {
          "building": "roof",
          "layer": "1",
          "type": "multipolygon"
        }
      },
      "geometry": {
        "type": "Polygon",
        "coordinates": [
          [
            [
              111.272,
              -127.507
            ],
            [
              102.196,
              -153.978
            ],
            [
              96.039,
              -171.952
            ],
            [
              98.629,
              -172.782
            ],
            [
              113.863,
              -128.348
            ],
            [
              111.272,
              -127.507
            ]
          ]
        ]
      }
    },
    {
      "type": "Feature",
      "id": "osm:relation:13512338",
      "properties": {
        "id": "osm:relation:13512338",
        "source_ids": [
          "osm:relation:13512338",
          "source:osm"
        ],
        "parent_ids": [],
        "name": null,
        "feature_kind": "building_outline",
        "height_m": 0.6,
        "min_height_m": 0.0,
        "levels": null,
        "height_status": "PROCEDURAL",
        "height_method": "diagnostic_type_fallback",
        "height_confidence": 0.15,
        "footprint_status": "VERIFIED_GEOGRAPHIC",
        "footprint_confidence": 0.8,
        "material": null,
        "colour": null,
        "footprint_area_m2": 127.39,
        "tags": {
          "building": "roof",
          "layer": "1",
          "type": "multipolygon"
        }
      },
      "geometry": {
        "type": "Polygon",
        "coordinates": [
          [
            [
              89.32,
              -169.781
            ],
            [
              91.9,
              -170.611
            ],
            [
              98.113,
              -152.504
            ],
            [
              107.134,
              -126.177
            ],
            [
              104.554,
              -125.347
            ],
            [
              89.32,
              -169.781
            ]
          ]
        ]
      }
    },
    {
      "type": "Feature",
      "id": "osm:way:1070584574",
      "properties": {
        "id": "osm:way:1070584574",
        "source_ids": [
          "osm:way:1070584574",
          "source:osm"
        ],
        "parent_ids": [],
        "name": null,
        "feature_kind": "building_part",
        "height_m": 169.1,
        "min_height_m": 0.0,
        "levels": 50.0,
        "height_status": "VERIFIED_GEOGRAPHIC",
        "height_method": "osm_height",
        "height_confidence": 0.75,
        "footprint_status": "VERIFIED_GEOGRAPHIC",
        "footprint_confidence": 0.8,
        "material": null,
        "colour": null,
        "footprint_area_m2": 1046.87,
        "tags": {
          "building:levels": "50",
          "building:part": "yes",
          "height": "169.1"
        }
      },
      "geometry": {
        "type": "Polygon",
        "coordinates": [
          [
            [
              27.52,
              -185.255
            ],
            [
              11.015,
              -179.238
            ],
            [
              -7.921,
              -230.524
            ],
            [
              1.331,
              -233.901
            ],
            [
              -2.52,
              -244.326
            ],
            [
              4.744,
              -246.977
            ],
            [
              17.622,
              -212.095
            ],
            [
              27.52,
              -185.255
            ]
          ]
        ]
      }
    },
    {
      "type": "Feature",
      "id": "osm:way:1070584575",
      "properties": {
        "id": "osm:way:1070584575",
        "source_ids": [
          "osm:way:1070584575",
          "source:osm"
        ],
        "parent_ids": [],
        "name": "West Gallery Place",
        "feature_kind": "building_outline",
        "height_m": 150.8,
        "min_height_m": 0.0,
        "levels": 45.0,
        "height_status": "VERIFIED_GEOGRAPHIC",
        "height_method": "osm_height",
        "height_confidence": 0.75,
        "footprint_status": "VERIFIED_GEOGRAPHIC",
        "footprint_confidence": 0.8,
        "material": "glass",
        "colour": "gray",
        "footprint_area_m2": 1362.87,
        "tags": {
          "building": "apartments",
          "building:colour": "gray",
          "building:levels": "45",
          "building:material": "glass",
          "height": "150.8",
          "name": "West Gallery Place"
        }
      },
      "geometry": {
        "type": "Polygon",
        "coordinates": [
          [
            [
              1.331,
              -233.901
            ],
            [
              -2.52,
              -244.326
            ],
            [
              4.744,
              -246.977
            ],
            [
              12.728,
              -249.89
            ],
            [
              25.606,
              -215.008
            ],
            [
              17.622,
              -212.095
            ],
            [
              27.52,
              -185.255
            ],
            [
              11.015,
              -179.238
            ],
            [
              -7.921,
              -230.524
            ],
            [
              1.331,
              -233.901
            ]
          ]
        ]
      }
    },
    {
      "type": "Feature",
      "id": "osm:way:1070584577",
      "properties": {
        "id": "osm:way:1070584577",
        "source_ids": [
          "osm:way:1070584577",
          "source:osm"
        ],
        "parent_ids": [],
        "name": "One Maridien",
        "feature_kind": "building_outline",
        "height_m": 17.3,
        "min_height_m": 0.0,
        "levels": 3.0,
        "height_status": "VERIFIED_GEOGRAPHIC",
        "height_method": "osm_height",
        "height_confidence": 0.75,
        "footprint_status": "VERIFIED_GEOGRAPHIC",
        "footprint_confidence": 0.8,
        "material": null,
        "colour": "beige",
        "footprint_area_m2": 2553.87,
        "tags": {
          "addr:city": "Taguig",
          "addr:postcode": "1634",
          "addr:street": "9th Avenue",
          "building": "apartments",
          "building:colour": "beige",
          "building:levels": "3",
          "height": "17.3",
          "name": "One Maridien"
        }
      },
      "geometry": {
        "type": "Polygon",
        "coordinates": [
          [
            [
              -49.254,
              -252.569
            ],
            [
              -38.169,
              -220.593
            ],
            [
              -109.566,
              -196.157
            ],
            [
              -120.651,
              -228.132
            ],
            [
              -49.254,
              -252.569
            ]
          ]
        ]
      }
    },
    {
      "type": "Feature",
      "id": "osm:way:1070584578",
      "properties": {
        "id": "osm:way:1070584578",
        "source_ids": [
          "osm:way:1070584578",
          "source:osm"
        ],
        "parent_ids": [],
        "name": "The Verve Residences Two",
        "feature_kind": "building_outline",
        "height_m": 24.4,
        "min_height_m": 0.0,
        "levels": 5.0,
        "height_status": "VERIFIED_GEOGRAPHIC",
        "height_method": "osm_height",
        "height_confidence": 0.75,
        "footprint_status": "VERIFIED_GEOGRAPHIC",
        "footprint_confidence": 0.8,
        "material": null,
        "colour": "beige",
        "footprint_area_m2": 2480.14,
        "tags": {
          "building": "apartments",
          "building:colour": "beige",
          "building:levels": "5",
          "height": "24.4",
          "name": "The Verve Residences Two"
        }
      },
      "geometry": {
        "type": "Polygon",
        "coordinates": [
          [
            [
              -213.403,
              -198.754
            ],
            [
              -144.654,
              -220.302
            ],
            [
              -134.241,
              -187.491
            ],
            [
              -202.99,
              -165.943
            ],
            [
              -213.403,
              -198.754
            ]
          ]
        ]
      }
    },
    {
      "type": "Feature",
      "id": "osm:way:1071370326",
      "properties": {
        "id": "osm:way:1071370326",
        "source_ids": [
          "osm:way:1071370326",
          "source:osm"
        ],
        "parent_ids": [],
        "name": null,
        "feature_kind": "building_part",
        "height_m": 45.9,
        "min_height_m": 0.0,
        "levels": 12.0,
        "height_status": "VERIFIED_GEOGRAPHIC",
        "height_method": "osm_height",
        "height_confidence": 0.75,
        "footprint_status": "VERIFIED_GEOGRAPHIC",
        "footprint_confidence": 0.8,
        "material": null,
        "colour": null,
        "footprint_area_m2": 814.89,
        "tags": {
          "building:levels": "12",
          "building:part": "yes",
          "height": "45.9"
        }
      },
      "geometry": {
        "type": "Polygon",
        "coordinates": [
          [
            [
              -4.414,
              53.622
            ],
            [
              4.432,
              79.674
            ],
            [
              -23.642,
              89.099
            ],
            [
              -32.488,
              63.036
            ],
            [
              -4.414,
              53.622
            ]
          ]
        ]
      }
    },
    {
      "type": "Feature",
      "id": "osm:way:1071370327",
      "properties": {
        "id": "osm:way:1071370327",
        "source_ids": [
          "osm:way:1071370327",
          "source:osm"
        ],
        "parent_ids": [],
        "name": null,
        "feature_kind": "building_outline",
        "height_m": 37.0,
        "min_height_m": 0.0,
        "levels": 10.0,
        "height_status": "VERIFIED_GEOGRAPHIC",
        "height_method": "osm_height",
        "height_confidence": 0.75,
        "footprint_status": "VERIFIED_GEOGRAPHIC",
        "footprint_confidence": 0.8,
        "material": null,
        "colour": null,
        "footprint_area_m2": 1197.46,
        "tags": {
          "building": "office",
          "building:levels": "10",
          "height": "37"
        }
      },
      "geometry": {
        "type": "Polygon",
        "coordinates": [
          [
            [
              -32.488,
              63.036
            ],
            [
              -4.414,
              53.622
            ],
            [
              4.432,
              79.674
            ],
            [
              8.59,
              91.911
            ],
            [
              -19.495,
              101.325
            ],
            [
              -23.642,
              89.099
            ],
            [
              -32.488,
              63.036
            ]
          ]
        ]
      }
    },
    {
      "type": "Feature",
      "id": "osm:way:1278985505",
      "properties": {
        "id": "osm:way:1278985505",
        "source_ids": [
          "osm:way:1278985505",
          "source:osm"
        ],
        "parent_ids": [],
        "name": null,
        "feature_kind": "building_outline",
        "height_m": 12.0,
        "min_height_m": 0.0,
        "levels": null,
        "height_status": "PROCEDURAL",
        "height_method": "diagnostic_type_fallback",
        "height_confidence": 0.15,
        "footprint_status": "VERIFIED_GEOGRAPHIC",
        "footprint_confidence": 0.8,
        "material": null,
        "colour": null,
        "footprint_area_m2": 101.79,
        "tags": {
          "building": "yes"
        }
      },
      "geometry": {
        "type": "Polygon",
        "coordinates": [
          [
            [
              -252.321,
              -227.039
            ],
            [
              -262.511,
              -223.665
            ],
            [
              -265.531,
              -232.647
            ],
            [
              -255.341,
              -236.032
            ],
            [
              -252.321,
              -227.039
            ]
          ]
        ]
      }
    },
    {
      "type": "Feature",
      "id": "osm:way:145147831",
      "properties": {
        "id": "osm:way:145147831",
        "source_ids": [
          "osm:way:145147831",
          "source:osm"
        ],
        "parent_ids": [],
        "name": "W Global Center",
        "feature_kind": "building_outline",
        "height_m": 30.5,
        "min_height_m": 0.0,
        "levels": 8.0,
        "height_status": "VERIFIED_GEOGRAPHIC",
        "height_method": "osm_height",
        "height_confidence": 0.75,
        "footprint_status": "VERIFIED_GEOGRAPHIC",
        "footprint_confidence": 0.8,
        "material": null,
        "colour": null,
        "footprint_area_m2": 1826.81,
        "tags": {
          "addr:city": "Taguig",
          "addr:street": "Lane P",
          "addr:street:corner": "9th Avenue",
          "building": "commercial",
          "building:levels": "8",
          "height": "30.5",
          "name": "W Global Center",
          "wikidata": "Q18395924"
        }
      },
      "geometry": {
        "type": "Polygon",
        "coordinates": [
          [
            [
              109.659,
              11.69
            ],
            [
              124.051,
              54.792
            ],
            [
              86.315,
              67.62
            ],
            [
              71.268,
              24.744
            ],
            [
              109.659,
              11.69
            ]
          ]
        ]
      }
    },
    {
      "type": "Feature",
      "id": "osm:way:1498398259",
      "properties": {
        "id": "osm:way:1498398259",
        "source_ids": [
          "osm:way:1498398259",
          "source:osm"
        ],
        "parent_ids": [],
        "name": "Harlan + Holden Coffee",
        "feature_kind": "building_outline",
        "height_m": 3.2,
        "min_height_m": 0.0,
        "levels": 1.0,
        "height_status": "ESTIMATED",
        "height_method": "building_levels_x_3.2m",
        "height_confidence": 0.55,
        "footprint_status": "VERIFIED_GEOGRAPHIC",
        "footprint_confidence": 0.8,
        "material": null,
        "colour": null,
        "footprint_area_m2": 27.46,
        "tags": {
          "building": "retail",
          "building:levels": "1",
          "name": "Harlan + Holden Coffee"
        }
      },
      "geometry": {
        "type": "Polygon",
        "coordinates": [
          [
            [
              -245.269,
              70.467
            ],
            [
              -250.289,
              72.037
            ],
            [
              -251.863,
              67.059
            ],
            [
              -246.842,
              65.489
            ],
            [
              -245.269,
              70.467
            ]
          ]
        ]
      }
    },
    {
      "type": "Feature",
      "id": "osm:way:178125949",
      "properties": {
        "id": "osm:way:178125949",
        "source_ids": [
          "osm:way:178125949",
          "source:osm"
        ],
        "parent_ids": [],
        "name": "C2",
        "feature_kind": "building_outline",
        "height_m": 12.0,
        "min_height_m": 0.0,
        "levels": null,
        "height_status": "PROCEDURAL",
        "height_method": "diagnostic_type_fallback",
        "height_confidence": 0.15,
        "footprint_status": "VERIFIED_GEOGRAPHIC",
        "footprint_confidence": 0.8,
        "material": null,
        "colour": null,
        "footprint_area_m2": 2412.58,
        "tags": {
          "addr:city": "Taguig",
          "addr:housename": "Bonifacio High Street Central",
          "addr:street": "7th Avenue",
          "addr:street:corner": "28th Street",
          "building": "retail",
          "name": "C2"
        }
      },
      "geometry": {
        "type": "Polygon",
        "coordinates": [
          [
            [
              -219.206,
              -22.781
            ],
            [
              -186.725,
              -33.76
            ],
            [
              -176.339,
              -0.395
            ],
            [
              -210.61,
              4.181
            ],
            [
              -212.537,
              4.441
            ],
            [
              -249.681,
              23.45
            ],
            [
              -260.177,
              -8.929
            ],
            [
              -219.206,
              -22.781
            ]
          ]
        ]
      }
    },
    {
      "type": "Feature",
      "id": "osm:way:178125950",
      "properties": {
        "id": "osm:way:178125950",
        "source_ids": [
          "osm:way:178125950",
          "source:osm"
        ],
        "parent_ids": [],
        "name": "C3",
        "feature_kind": "building_outline",
        "height_m": 6.4,
        "min_height_m": 0.0,
        "levels": 2.0,
        "height_status": "ESTIMATED",
        "height_method": "building_levels_x_3.2m",
        "height_confidence": 0.55,
        "footprint_status": "VERIFIED_GEOGRAPHIC",
        "footprint_confidence": 0.8,
        "material": null,
        "colour": null,
        "footprint_area_m2": 2447.59,
        "tags": {
          "addr:city": "Taguig",
          "addr:housename": "Bonifacio High Street Central",
          "addr:street": "7th Avenue",
          "building": "retail",
          "building:levels": "2",
          "name": "C3"
        }
      },
      "geometry": {
        "type": "Polygon",
        "coordinates": [
          [
            [
              -150.678,
              91.071
            ],
            [
              -148.143,
              98.906
            ],
            [
              -180.798,
              109.699
            ],
            [
              -220.008,
              122.739
            ],
            [
              -230.588,
              91.899
            ],
            [
              -231.793,
              88.401
            ],
            [
              -189.033,
              82.015
            ],
            [
              -185.321,
              81.12
            ],
            [
              -159.126,
              64.96
            ],
            [
              -150.678,
              91.071
            ]
          ]
        ]
      }
    },
    {
      "type": "Feature",
      "id": "osm:way:178125951",
      "properties": {
        "id": "osm:way:178125951",
        "source_ids": [
          "osm:way:178125951",
          "source:osm"
        ],
        "parent_ids": [],
        "name": "C1",
        "feature_kind": "building_outline",
        "height_m": 10.1,
        "min_height_m": 0.0,
        "levels": 2.0,
        "height_status": "VERIFIED_GEOGRAPHIC",
        "height_method": "osm_height",
        "height_confidence": 0.75,
        "footprint_status": "VERIFIED_GEOGRAPHIC",
        "footprint_confidence": 0.8,
        "material": null,
        "colour": null,
        "footprint_area_m2": 3196.07,
        "tags": {
          "addr:city": "Taguig",
          "addr:housename": "Bonifacio High Street Central",
          "addr:street": "5th Avenue",
          "addr:street:corner": "28th Street",
          "building": "retail",
          "building:levels": "2",
          "height": "10.1",
          "name": "C1",
          "shop": "mall"
        }
      },
      "geometry": {
        "type": "Polygon",
        "coordinates": [
          [
            [
              -349.177,
              6.562
            ],
            [
              -329.034,
              -0.029
            ],
            [
              -319.772,
              26.684
            ],
            [
              -269.788,
              10.486
            ],
            [
              -264.217,
              27.89
            ],
            [
              -263.198,
              31.08
            ],
            [
              -259.589,
              43.443
            ],
            [
              -309.759,
              54.253
            ],
            [
              -332.854,
              68.649
            ],
            [
              -347.34,
              26.035
            ],
            [
              -349.177,
              6.562
            ]
          ]
        ]
      }
    },
    {
      "type": "Feature",
      "id": "osm:way:203893554",
      "properties": {
        "id": "osm:way:203893554",
        "source_ids": [
          "osm:way:203893554",
          "source:osm"
        ],
        "parent_ids": [],
        "name": "Maybank",
        "feature_kind": "building_outline",
        "height_m": 12.0,
        "min_height_m": 0.0,
        "levels": null,
        "height_status": "PROCEDURAL",
        "height_method": "diagnostic_type_fallback",
        "height_confidence": 0.15,
        "footprint_status": "VERIFIED_GEOGRAPHIC",
        "footprint_confidence": 0.8,
        "material": null,
        "colour": null,
        "footprint_area_m2": 901.57,
        "tags": {
          "addr:city": "Taguig",
          "addr:street": "7th Avenue",
          "addr:street:corner": "28th Street",
          "building": "commercial",
          "name": "Maybank"
        }
      },
      "geometry": {
        "type": "Polygon",
        "coordinates": [
          [
            [
              -200.513,
              -71.777
            ],
            [
              -189.15,
              -37.546
            ],
            [
              -212.916,
              -29.773
            ],
            [
              -224.269,
              -63.993
            ],
            [
              -200.513,
              -71.777
            ]
          ]
        ]
      }
    },
    {
      "type": "Feature",
      "id": "osm:way:203893627",
      "properties": {
        "id": "osm:way:203893627",
        "source_ids": [
          "osm:way:203893627",
          "source:osm"
        ],
        "parent_ids": [],
        "name": "Live Street",
        "feature_kind": "building_outline",
        "height_m": 12.0,
        "min_height_m": 0.0,
        "levels": null,
        "height_status": "PROCEDURAL",
        "height_method": "diagnostic_type_fallback",
        "height_confidence": 0.15,
        "footprint_status": "VERIFIED_GEOGRAPHIC",
        "footprint_confidence": 0.8,
        "material": null,
        "colour": null,
        "footprint_area_m2": 130.39,
        "tags": {
          "amenity": "community_centre",
          "building": "yes",
          "name": "Live Street"
        }
      },
      "geometry": {
        "type": "Polygon",
        "coordinates": [
          [
            [
              -225.339,
              72.897
            ],
            [
              -219.214,
              53.091
            ],
            [
              -212.933,
              60.275
            ],
            [
              -213.286,
              68.079
            ],
            [
              -225.339,
              72.897
            ]
          ]
        ]
      }
    },
    {
      "type": "Feature",
      "id": "osm:way:205968610",
      "properties": {
        "id": "osm:way:205968610",
        "source_ids": [
          "osm:way:205968610",
          "source:osm"
        ],
        "parent_ids": [],
        "name": "Central Square",
        "feature_kind": "building_outline",
        "height_m": 25.9,
        "min_height_m": 5.2,
        "levels": 5.0,
        "height_status": "VERIFIED_GEOGRAPHIC",
        "height_method": "osm_height",
        "height_confidence": 0.75,
        "footprint_status": "VERIFIED_GEOGRAPHIC",
        "footprint_confidence": 0.8,
        "material": null,
        "colour": null,
        "footprint_area_m2": 6118.4,
        "tags": {
          "addr:city": "Taguig",
          "addr:street": "30th Street",
          "addr:street:corner": "5th Avenue",
          "alt_name": "SSI NorthWest Building",
          "building": "yes",
          "building:levels": "5",
          "building:min_level": "1",
          "height": "25.9",
          "min_height": "5.2",
          "name": "Central Square",
          "operator": "SSI Group",
          "shop": "mall",
          "short_name": "C4"
        }
      },
      "geometry": {
        "type": "Polygon",
        "coordinates": [
          [
            [
              -215.592,
              150.024
            ],
            [
              -214.465,
              153.29
            ],
            [
              -216.814,
              153.399
            ],
            [
              -228.354,
              153.94
            ],
            [
              -243.718,
              154.658
            ],
            [
              -244.338,
              152.749
            ],
            [
              -253.378,
              155.737
            ],
            [
              -254.442,
              156.078
            ],
            [
              -261.289,
              158.295
            ],
            [
              -262.784,
              158.772
            ],
            [
              -263.848,
              159.124
            ],
            [
              -272.306,
              162.008
            ],
            [
              -273.274,
              162.337
            ],
            [
              -277.529,
              163.834
            ],
            [
              -281.248,
              165.15
            ],
            [
              -282.118,
              165.445
            ],
            [
              -289.653,
              167.944
            ],
            [
              -293.63,
              169.273
            ],
            [
              -298.155,
              170.739
            ],
            [
              -321.859,
              102.706
            ],
            [
              -283.744,
              92.575
            ],
            [
              -284.309,
              90.798
            ],
            [
              -276.901,
              88.643
            ],
            [
              -276.413,
              90.233
            ],
            [
              -240.034,
              78.833
            ],
            [
              -238.348,
              84.44
            ],
            [
              -237.481,
              86.247
            ],
            [
              -235.232,
              93.355
            ],
            [
              -225.155,
              122.152
            ],
            [
              -215.592,
              150.024
            ]
          ]
        ]
      }
    },
    {
      "type": "Feature",
      "id": "osm:way:242294490",
      "properties": {
        "id": "osm:way:242294490",
        "source_ids": [
          "osm:way:242294490",
          "source:osm"
        ],
        "parent_ids": [],
        "name": "JY Campos Center",
        "feature_kind": "building_outline",
        "height_m": 45.9,
        "min_height_m": 0.0,
        "levels": 12.0,
        "height_status": "VERIFIED_GEOGRAPHIC",
        "height_method": "osm_height",
        "height_confidence": 0.75,
        "footprint_status": "VERIFIED_GEOGRAPHIC",
        "footprint_confidence": 0.8,
        "material": null,
        "colour": null,
        "footprint_area_m2": 1879.16,
        "tags": {
          "addr:city": "Taguig",
          "addr:district": "Bonifacio Global City",
          "addr:street": "30th Street",
          "addr:street:corner": "9th Avenue",
          "alt_name": "J.Y. Campos Center",
          "building": "office",
          "building:levels": "12",
          "height": "45.9",
          "name": "JY Campos Center"
        }
      },
      "geometry": {
        "type": "Polygon",
        "coordinates": [
          [
            [
              63.049,
              75.864
            ],
            [
              23.957,
              88.958
            ],
            [
              9.317,
              45.791
            ],
            [
              48.408,
              32.697
            ],
            [
              63.049,
              75.864
            ]
          ]
        ]
      }
    },
    {
      "type": "Feature",
      "id": "osm:way:27442528",
      "properties": {
        "id": "osm:way:27442528",
        "source_ids": [
          "osm:way:27442528",
          "source:osm"
        ],
        "parent_ids": [],
        "name": "B:3",
        "feature_kind": "building_outline",
        "height_m": 12.0,
        "min_height_m": 0.0,
        "levels": null,
        "height_status": "PROCEDURAL",
        "height_method": "diagnostic_type_fallback",
        "height_confidence": 0.15,
        "footprint_status": "VERIFIED_GEOGRAPHIC",
        "footprint_confidence": 0.8,
        "material": null,
        "colour": null,
        "footprint_area_m2": 2035.22,
        "tags": {
          "addr:city": "Taguig",
          "addr:housename": "Bonifacio High Street",
          "building": "retail",
          "layer": "1",
          "name": "B:3"
        }
      },
      "geometry": {
        "type": "Polygon",
        "coordinates": [
          [
            [
              -95.861,
              66.499
            ],
            [
              -122.388,
              75.358
            ],
            [
              -133.414,
              42.729
            ],
            [
              -52.814,
              19.386
            ],
            [
              -44.427,
              44.601
            ],
            [
              -58.616,
              49.315
            ],
            [
              -60.755,
              42.439
            ],
            [
              -68.023,
              44.582
            ],
            [
              -70.601,
              36.846
            ],
            [
              -91.123,
              43.274
            ],
            [
              -88.464,
              51.762
            ],
            [
              -94.135,
              54.079
            ],
            [
              -93.115,
              57.445
            ],
            [
              -98.229,
              59.337
            ],
            [
              -95.861,
              66.499
            ]
          ]
        ]
      }
    },
    {
      "type": "Feature",
      "id": "osm:way:27442546",
      "properties": {
        "id": "osm:way:27442546",
        "source_ids": [
          "osm:way:27442546",
          "source:osm"
        ],
        "parent_ids": [],
        "name": "B:3",
        "feature_kind": "building_outline",
        "height_m": 12.0,
        "min_height_m": 0.0,
        "levels": null,
        "height_status": "PROCEDURAL",
        "height_method": "diagnostic_type_fallback",
        "height_confidence": 0.15,
        "footprint_status": "VERIFIED_GEOGRAPHIC",
        "footprint_confidence": 0.8,
        "material": null,
        "colour": null,
        "footprint_area_m2": 2048.35,
        "tags": {
          "addr:city": "Taguig",
          "addr:housename": "Bonifacio High Street",
          "addr:street": "9th Avenue",
          "building": "retail",
          "layer": "1",
          "name": "B:3"
        }
      },
      "geometry": {
        "type": "Polygon",
        "coordinates": [
          [
            [
              32.968,
              -11.968
            ],
            [
              43.133,
              18.267
            ],
            [
              5.307,
              30.719
            ],
            [
              2.445,
              21.171
            ],
            [
              0.444,
              21.642
            ],
            [
              -2.081,
              13.818
            ],
            [
              -4.37,
              14.623
            ],
            [
              -22.123,
              20.883
            ],
            [
              -19.64,
              28.908
            ],
            [
              -25.662,
              30.619
            ],
            [
              -23.728,
              37.43
            ],
            [
              -36.734,
              41.747
            ],
            [
              -44.923,
              16.928
            ],
            [
              -8.522,
              2.983
            ],
            [
              20.035,
              -7.962
            ],
            [
              32.968,
              -11.968
            ]
          ]
        ]
      }
    },
    {
      "type": "Feature",
      "id": "osm:way:27442590",
      "properties": {
        "id": "osm:way:27442590",
        "source_ids": [
          "osm:way:27442590",
          "source:osm"
        ],
        "parent_ids": [],
        "name": "B:8",
        "feature_kind": "building_outline",
        "height_m": 12.0,
        "min_height_m": 0.0,
        "levels": null,
        "height_status": "PROCEDURAL",
        "height_method": "diagnostic_type_fallback",
        "height_confidence": 0.15,
        "footprint_status": "VERIFIED_GEOGRAPHIC",
        "footprint_confidence": 0.8,
        "material": null,
        "colour": null,
        "footprint_area_m2": 2080.41,
        "tags": {
          "addr:city": "Taguig",
          "addr:housename": "Bonifacio High Street",
          "addr:street": "9th Avenue",
          "building": "retail",
          "layer": "1",
          "name": "B:8"
        }
      },
      "geometry": {
        "type": "Polygon",
        "coordinates": [
          [
            [
              96.079,
              4.314
            ],
            [
              69.838,
              12.572
            ],
            [
              58.299,
              -19.588
            ],
            [
              71.208,
              -23.782
            ],
            [
              132.915,
              -41.971
            ],
            [
              142.08,
              -13.852
            ],
            [
              129.61,
              -9.839
            ],
            [
              126.876,
              -18.237
            ],
            [
              119.018,
              -15.702
            ],
            [
              116.948,
              -22.048
            ],
            [
              98.459,
              -16.091
            ],
            [
              103.518,
              -0.553
            ],
            [
              95.348,
              2.073
            ],
            [
              96.079,
              4.314
            ]
          ]
        ]
      }
    },
    {
      "type": "Feature",
      "id": "osm:way:27442939",
      "properties": {
        "id": "osm:way:27442939",
        "source_ids": [
          "osm:way:27442939",
          "source:osm"
        ],
        "parent_ids": [],
        "name": "Honda Cars Global City",
        "feature_kind": "building_outline",
        "height_m": 12.0,
        "min_height_m": 0.0,
        "levels": null,
        "height_status": "PROCEDURAL",
        "height_method": "diagnostic_type_fallback",
        "height_confidence": 0.15,
        "footprint_status": "VERIFIED_GEOGRAPHIC",
        "footprint_confidence": 0.8,
        "material": null,
        "colour": null,
        "footprint_area_m2": 2379.73,
        "tags": {
          "addr:city": "Taguig",
          "addr:district": "Bonifacio Global City",
          "addr:housename": "932",
          "addr:province": "Metro Manila",
          "addr:street": "28th Street",
          "building": "yes",
          "name": "Honda Cars Global City",
          "shop": "car"
        }
      },
      "geometry": {
        "type": "Polygon",
        "coordinates": [
          [
            [
              52.024,
              -105.432
            ],
            [
              28.957,
              -97.843
            ],
            [
              14.729,
              -141.887
            ],
            [
              28.923,
              -148.549
            ],
            [
              62.016,
              -159.71
            ],
            [
              76.908,
              -116.114
            ],
            [
              64.881,
              -112.082
            ],
            [
              51.328,
              -107.473
            ],
            [
              52.024,
              -105.432
            ]
          ]
        ]
      }
    },
    {
      "type": "Feature",
      "id": "osm:way:27442969",
      "properties": {
        "id": "osm:way:27442969",
        "source_ids": [
          "osm:way:27442969",
          "source:osm"
        ],
        "parent_ids": [],
        "name": "B:5",
        "feature_kind": "building_outline",
        "height_m": 12.0,
        "min_height_m": 0.0,
        "levels": null,
        "height_status": "PROCEDURAL",
        "height_method": "diagnostic_type_fallback",
        "height_confidence": 0.15,
        "footprint_status": "VERIFIED_GEOGRAPHIC",
        "footprint_confidence": 0.8,
        "material": null,
        "colour": null,
        "footprint_area_m2": 1815.25,
        "tags": {
          "addr:city": "Taguig",
          "addr:housename": "Bonifacio High Street",
          "addr:street": "9th Avenue",
          "building": "retail",
          "layer": "1",
          "name": "B:5"
        }
      },
      "geometry": {
        "type": "Polygon",
        "coordinates": [
          [
            [
              94.25,
              -107.575
            ],
            [
              106.286,
              -111.839
            ],
            [
              115.561,
              -86.033
            ],
            [
              55.182,
              -62.654
            ],
            [
              43.261,
              -58.79
            ],
            [
              32.923,
              -90.429
            ],
            [
              54.405,
              -98.005
            ],
            [
              58.115,
              -87.7
            ],
            [
              67.518,
              -91.045
            ],
            [
              70.213,
              -83.554
            ],
            [
              78.896,
              -86.639
            ],
            [
              93.296,
              -91.742
            ],
            [
              90.889,
              -98.427
            ],
            [
              96.789,
              -100.514
            ],
            [
              94.25,
              -107.575
            ]
          ]
        ]
      }
    },
    {
      "type": "Feature",
      "id": "osm:way:27664814",
      "properties": {
        "id": "osm:way:27664814",
        "source_ids": [
          "osm:way:27664814",
          "source:osm"
        ],
        "parent_ids": [],
        "name": "B:2",
        "feature_kind": "building_outline",
        "height_m": 12.0,
        "min_height_m": 0.0,
        "levels": null,
        "height_status": "PROCEDURAL",
        "height_method": "diagnostic_type_fallback",
        "height_confidence": 0.15,
        "footprint_status": "VERIFIED_GEOGRAPHIC",
        "footprint_confidence": 0.8,
        "material": null,
        "colour": null,
        "footprint_area_m2": 2107.32,
        "tags": {
          "addr:city": "Taguig",
          "addr:housename": "Bonifacio High Street",
          "addr:street": "9th Avenue",
          "building": "retail",
          "layer": "1",
          "name": "B:2"
        }
      },
      "geometry": {
        "type": "Polygon",
        "coordinates": [
          [
            [
              3.937,
              -45.118
            ],
            [
              -62.904,
              -26.088
            ],
            [
              -71.865,
              -52.947
            ],
            [
              -57.343,
              -57.73
            ],
            [
              -55.141,
              -51.142
            ],
            [
              -50.584,
              -52.653
            ],
            [
              -47.807,
              -44.322
            ],
            [
              -23.181,
              -52.423
            ],
            [
              -25.538,
              -59.474
            ],
            [
              -18.336,
              -61.849
            ],
            [
              -22.308,
              -73.766
            ],
            [
              5.145,
              -82.81
            ],
            [
              17.23,
              -49.825
            ],
            [
              3.937,
              -45.118
            ]
          ]
        ]
      }
    },
    {
      "type": "Feature",
      "id": "osm:way:27664877",
      "properties": {
        "id": "osm:way:27664877",
        "source_ids": [
          "osm:way:27664877",
          "source:osm"
        ],
        "parent_ids": [],
        "name": "B:1",
        "feature_kind": "building_outline",
        "height_m": 12.0,
        "min_height_m": 0.0,
        "levels": null,
        "height_status": "PROCEDURAL",
        "height_method": "diagnostic_type_fallback",
        "height_confidence": 0.15,
        "footprint_status": "VERIFIED_GEOGRAPHIC",
        "footprint_confidence": 0.8,
        "material": null,
        "colour": null,
        "footprint_area_m2": 2009.5,
        "tags": {
          "addr:city": "Taguig",
          "addr:housename": "Bonifacio High Street",
          "building": "retail",
          "layer": "1",
          "name": "B:1"
        }
      },
      "geometry": {
        "type": "Polygon",
        "coordinates": [
          [
            [
              -90.183,
              -45.874
            ],
            [
              -77.156,
              -50.29
            ],
            [
              -68.016,
              -23.897
            ],
            [
              -133.804,
              2.185
            ],
            [
              -145.552,
              6.114
            ],
            [
              -156.206,
              -25.799
            ],
            [
              -128.842,
              -35.174
            ],
            [
              -125.697,
              -25.429
            ],
            [
              -116.067,
              -28.699
            ],
            [
              -112.757,
              -19.719
            ],
            [
              -90.47,
              -27.767
            ],
            [
              -93.556,
              -35.797
            ],
            [
              -87.906,
              -38.058
            ],
            [
              -90.183,
              -45.874
            ]
          ]
        ]
      }
    },
    {
      "type": "Feature",
      "id": "osm:way:37554026",
      "properties": {
        "id": "osm:way:37554026",
        "source_ids": [
          "osm:way:37554026",
          "source:osm"
        ],
        "parent_ids": [],
        "name": "Active Fun Building",
        "feature_kind": "building_outline",
        "height_m": 12.0,
        "min_height_m": 0.0,
        "levels": null,
        "height_status": "PROCEDURAL",
        "height_method": "diagnostic_type_fallback",
        "height_confidence": 0.15,
        "footprint_status": "VERIFIED_GEOGRAPHIC",
        "footprint_confidence": 0.8,
        "material": null,
        "colour": null,
        "footprint_area_m2": 2022.89,
        "tags": {
          "addr:city": "Taguig",
          "addr:street": "28th Street",
          "addr:street:corner": "9th Avenue",
          "building": "yes",
          "name": "Active Fun Building"
        }
      },
      "geometry": {
        "type": "Polygon",
        "coordinates": [
          [
            [
              -32.92,
              -78.224
            ],
            [
              -48.506,
              -123.507
            ],
            [
              -8.458,
              -136.986
            ],
            [
              7.17,
              -91.858
            ],
            [
              -18.937,
              -82.98
            ],
            [
              -32.92,
              -78.224
            ]
          ]
        ]
      }
    },
    {
      "type": "Feature",
      "id": "osm:way:37554027",
      "properties": {
        "id": "osm:way:37554027",
        "source_ids": [
          "osm:way:37554027",
          "source:osm"
        ],
        "parent_ids": [],
        "name": "One Parkade",
        "feature_kind": "building_outline",
        "height_m": 12.0,
        "min_height_m": 0.0,
        "levels": null,
        "height_status": "PROCEDURAL",
        "height_method": "diagnostic_type_fallback",
        "height_confidence": 0.15,
        "footprint_status": "VERIFIED_GEOGRAPHIC",
        "footprint_confidence": 0.8,
        "material": null,
        "colour": null,
        "footprint_area_m2": 3896.26,
        "tags": {
          "addr:city": "Taguig",
          "addr:postcode": "1634",
          "addr:street": "Lane O",
          "amenity": "parking",
          "building": "yes",
          "name": "One Parkade"
        }
      },
      "geometry": {
        "type": "Polygon",
        "coordinates": [
          [
            [
              -96.418,
              -108.213
            ],
            [
              -81.381,
              -64.154
            ],
            [
              -160.703,
              -37.436
            ],
            [
              -175.729,
              -81.495
            ],
            [
              -96.418,
              -108.213
            ]
          ]
        ]
      }
    },
    {
      "type": "Feature",
      "id": "osm:way:37554033",
      "properties": {
        "id": "osm:way:37554033",
        "source_ids": [
          "osm:way:37554033",
          "source:osm"
        ],
        "parent_ids": [],
        "name": "Two Parkade",
        "feature_kind": "building_outline",
        "height_m": 12.0,
        "min_height_m": 0.0,
        "levels": null,
        "height_status": "PROCEDURAL",
        "height_method": "diagnostic_type_fallback",
        "height_confidence": 0.15,
        "footprint_status": "VERIFIED_GEOGRAPHIC",
        "footprint_confidence": 0.8,
        "material": null,
        "colour": null,
        "footprint_area_m2": 3591.04,
        "tags": {
          "addr:city": "Taguig",
          "addr:postcode": "1634",
          "addr:street": "Lane P",
          "amenity": "parking",
          "building": "yes",
          "name": "Two Parkade"
        }
      },
      "geometry": {
        "type": "Polygon",
        "coordinates": [
          [
            [
              -117.519,
              91.374
            ],
            [
              -38.827,
              64.241
            ],
            [
              -24.887,
              104.813
            ],
            [
              -103.717,
              132.235
            ],
            [
              -109.286,
              116.347
            ],
            [
              -111.795,
              109.142
            ],
            [
              -117.519,
              91.374
            ]
          ]
        ]
      }
    },
    {
      "type": "Feature",
      "id": "osm:way:38715205",
      "properties": {
        "id": "osm:way:38715205",
        "source_ids": [
          "osm:way:38715205",
          "source:osm"
        ],
        "parent_ids": [],
        "name": "Police Community Precinct - 7",
        "feature_kind": "building_outline",
        "height_m": 12.0,
        "min_height_m": 0.0,
        "levels": null,
        "height_status": "PROCEDURAL",
        "height_method": "diagnostic_type_fallback",
        "height_confidence": 0.15,
        "footprint_status": "VERIFIED_GEOGRAPHIC",
        "footprint_confidence": 0.8,
        "material": null,
        "colour": null,
        "footprint_area_m2": 130.71,
        "tags": {
          "addr:street": "7th Avenue",
          "amenity": "police",
          "building": "yes",
          "name": "Police Community Precinct - 7",
          "operator": "Taguig City Police"
        }
      },
      "geometry": {
        "type": "Polygon",
        "coordinates": [
          [
            [
              -245.404,
              -208.473
            ],
            [
              -252.52,
              -206.232
            ],
            [
              -257.859,
              -222.908
            ],
            [
              -250.742,
              -225.16
            ],
            [
              -245.404,
              -208.473
            ]
          ]
        ]
      }
    },
    {
      "type": "Feature",
      "id": "osm:way:443761696",
      "properties": {
        "id": "osm:way:443761696",
        "source_ids": [
          "osm:way:443761696",
          "source:osm"
        ],
        "parent_ids": [],
        "name": "Uniqlo",
        "feature_kind": "building_outline",
        "height_m": 12.8,
        "min_height_m": 0.0,
        "levels": 4.0,
        "height_status": "ESTIMATED",
        "height_method": "building_levels_x_3.2m",
        "height_confidence": 0.55,
        "footprint_status": "VERIFIED_GEOGRAPHIC",
        "footprint_confidence": 0.8,
        "material": null,
        "colour": null,
        "footprint_area_m2": 781.09,
        "tags": {
          "addr:city": "Taguig",
          "addr:housenumber": "C3 Annex",
          "addr:postcode": "1634",
          "addr:province": "Metro Manila",
          "addr:street": "30th Street",
          "addr:street:corner": "7th Avenue",
          "building": "yes",
          "building:levels": "4",
          "name": "Uniqlo",
          "shop": "clothes"
        }
      },
      "geometry": {
        "type": "Polygon",
        "coordinates": [
          [
            [
              -157.316,
              122.877
            ],
            [
              -161.522,
              109.944
            ],
            [
              -140.772,
              103.702
            ],
            [
              -129.362,
              138.364
            ],
            [
              -149.792,
              145.566
            ],
            [
              -154.411,
              131.053
            ],
            [
              -153.326,
              130.656
            ],
            [
              -152.434,
              130.328
            ],
            [
              -155.166,
              122.118
            ],
            [
              -157.316,
              122.877
            ]
          ]
        ]
      }
    },
    {
      "type": "Feature",
      "id": "osm:way:469908149",
      "properties": {
        "id": "osm:way:469908149",
        "source_ids": [
          "osm:way:469908149",
          "source:osm"
        ],
        "parent_ids": [],
        "name": null,
        "feature_kind": "building_part",
        "height_m": 31.1,
        "min_height_m": 0.0,
        "levels": 6.0,
        "height_status": "VERIFIED_GEOGRAPHIC",
        "height_method": "osm_height",
        "height_confidence": 0.75,
        "footprint_status": "VERIFIED_GEOGRAPHIC",
        "footprint_confidence": 0.8,
        "material": null,
        "colour": null,
        "footprint_area_m2": 1388.52,
        "tags": {
          "building:levels": "6",
          "building:part": "yes",
          "height": "31.1"
        }
      },
      "geometry": {
        "type": "Polygon",
        "coordinates": [
          [
            [
              -328.236,
              182.517
            ],
            [
              -379.729,
              199.912
            ],
            [
              -383.397,
              189.497
            ],
            [
              -349.184,
              178.159
            ],
            [
              -363.034,
              136.856
            ],
            [
              -345.782,
              131.175
            ],
            [
              -328.236,
              182.517
            ]
          ]
        ]
      }
    },
    {
      "type": "Feature",
      "id": "osm:way:470203065",
      "properties": {
        "id": "osm:way:470203065",
        "source_ids": [
          "osm:way:470203065",
          "source:osm"
        ],
        "parent_ids": [],
        "name": null,
        "feature_kind": "building_part",
        "height_m": 5.2,
        "min_height_m": 0.0,
        "levels": 1.0,
        "height_status": "VERIFIED_GEOGRAPHIC",
        "height_method": "osm_height",
        "height_confidence": 0.75,
        "footprint_status": "VERIFIED_GEOGRAPHIC",
        "footprint_confidence": 0.8,
        "material": null,
        "colour": null,
        "footprint_area_m2": 27.84,
        "tags": {
          "building:levels": "1",
          "building:part": "column",
          "height": "5.2"
        }
      },
      "geometry": {
        "type": "Polygon",
        "coordinates": [
          [
            [
              -289.653,
              167.944
            ],
            [
              -293.63,
              169.273
            ],
            [
              -295.753,
              162.983
            ],
            [
              -291.776,
              161.654
            ],
            [
              -289.653,
              167.944
            ]
          ]
        ]
      }
    },
    {
      "type": "Feature",
      "id": "osm:way:470203066",
      "properties": {
        "id": "osm:way:470203066",
        "source_ids": [
          "osm:way:470203066",
          "source:osm"
        ],
        "parent_ids": [],
        "name": null,
        "feature_kind": "building_part",
        "height_m": 25.9,
        "min_height_m": 0.0,
        "levels": 5.0,
        "height_status": "VERIFIED_GEOGRAPHIC",
        "height_method": "osm_height",
        "height_confidence": 0.75,
        "footprint_status": "VERIFIED_GEOGRAPHIC",
        "footprint_confidence": 0.8,
        "material": null,
        "colour": null,
        "footprint_area_m2": 4307.53,
        "tags": {
          "building:levels": "5",
          "building:part": "yes",
          "height": "25.9"
        }
      },
      "geometry": {
        "type": "Polygon",
        "coordinates": [
          [
            [
              -272.356,
              151.196
            ],
            [
              -296.173,
              159.291
            ],
            [
              -314.988,
              108.28
            ],
            [
              -238.348,
              84.44
            ],
            [
              -235.232,
              93.355
            ],
            [
              -225.155,
              122.152
            ],
            [
              -237.422,
              125.909
            ],
            [
              -228.354,
              153.94
            ],
            [
              -243.718,
              154.658
            ],
            [
              -244.338,
              152.749
            ],
            [
              -247.818,
              142.863
            ],
            [
              -272.356,
              151.196
            ]
          ]
        ]
      }
    },
    {
      "type": "Feature",
      "id": "osm:way:470203067",
      "properties": {
        "id": "osm:way:470203067",
        "source_ids": [
          "osm:way:470203067",
          "source:osm"
        ],
        "parent_ids": [],
        "name": null,
        "feature_kind": "building_part",
        "height_m": 3.2,
        "min_height_m": 0.0,
        "levels": 1.0,
        "height_status": "ESTIMATED",
        "height_method": "building_levels_x_3.2m",
        "height_confidence": 0.55,
        "footprint_status": "VERIFIED_GEOGRAPHIC",
        "footprint_confidence": 0.8,
        "material": null,
        "colour": null,
        "footprint_area_m2": 6.92,
        "tags": {
          "building": "yes",
          "building:levels": "1",
          "building:part": "column"
        }
      },
      "geometry": {
        "type": "Polygon",
        "coordinates": [
          [
            [
              -214.465,
              153.29
            ],
            [
              -216.814,
              153.399
            ],
            [
              -217.634,
              150.717
            ],
            [
              -215.592,
              150.024
            ],
            [
              -214.465,
              153.29
            ]
          ]
        ]
      }
    },
    {
      "type": "Feature",
      "id": "osm:way:531995976",
      "properties": {
        "id": "osm:way:531995976",
        "source_ids": [
          "osm:way:531995976",
          "source:osm"
        ],
        "parent_ids": [],
        "name": null,
        "feature_kind": "building_part",
        "height_m": 152.9,
        "min_height_m": 0.0,
        "levels": 40.0,
        "height_status": "VERIFIED_GEOGRAPHIC",
        "height_method": "osm_height",
        "height_confidence": 0.75,
        "footprint_status": "VERIFIED_GEOGRAPHIC",
        "footprint_confidence": 0.8,
        "material": null,
        "colour": "beige",
        "footprint_area_m2": 1427.35,
        "tags": {
          "addr:city": "Taguig",
          "addr:postcode": "1634",
          "addr:street": "9th Avenue",
          "building:colour": "beige",
          "building:levels": "40",
          "building:part": "yes",
          "height": "152.9"
        }
      },
      "geometry": {
        "type": "Polygon",
        "coordinates": [
          [
            [
              -69.863,
              -210.838
            ],
            [
              -107.172,
              -198.556
            ],
            [
              -112.719,
              -216.979
            ],
            [
              -88.334,
              -224.27
            ],
            [
              -92.221,
              -235.104
            ],
            [
              -55.88,
              -248.396
            ],
            [
              -52.335,
              -238.477
            ],
            [
              -49.176,
              -239.655
            ],
            [
              -45.918,
              -230.553
            ],
            [
              -73.205,
              -221.057
            ],
            [
              -69.863,
              -210.838
            ]
          ]
        ]
      }
    },
    {
      "type": "Feature",
      "id": "osm:way:538702984",
      "properties": {
        "id": "osm:way:538702984",
        "source_ids": [
          "osm:way:538702984",
          "source:osm"
        ],
        "parent_ids": [],
        "name": null,
        "feature_kind": "building_part",
        "height_m": 172.0,
        "min_height_m": 0.0,
        "levels": 45.0,
        "height_status": "VERIFIED_GEOGRAPHIC",
        "height_method": "osm_height",
        "height_confidence": 0.75,
        "footprint_status": "VERIFIED_GEOGRAPHIC",
        "footprint_confidence": 0.8,
        "material": null,
        "colour": "beige",
        "footprint_area_m2": 1490.45,
        "tags": {
          "building:colour": "beige",
          "building:levels": "45",
          "building:part": "yes",
          "height": "172"
        }
      },
      "geometry": {
        "type": "Polygon",
        "coordinates": [
          [
            [
              -205.619,
              -198.533
            ],
            [
              -169.583,
              -211.003
            ],
            [
              -166.157,
              -201.217
            ],
            [
              -143.491,
              -209.058
            ],
            [
              -136.574,
              -189.286
            ],
            [
              -172.922,
              -176.713
            ],
            [
              -176.612,
              -187.261
            ],
            [
              -205.781,
              -177.173
            ],
            [
              -208.455,
              -184.831
            ],
            [
              -201.641,
              -187.191
            ],
            [
              -205.619,
              -198.533
            ]
          ]
        ]
      }
    },
    {
      "type": "Feature",
      "id": "osm:way:603380324",
      "properties": {
        "id": "osm:way:603380324",
        "source_ids": [
          "osm:way:603380324",
          "source:osm"
        ],
        "parent_ids": [],
        "name": "Bench",
        "feature_kind": "building_outline",
        "height_m": 12.0,
        "min_height_m": 0.0,
        "levels": null,
        "height_status": "PROCEDURAL",
        "height_method": "diagnostic_type_fallback",
        "height_confidence": 0.15,
        "footprint_status": "VERIFIED_GEOGRAPHIC",
        "footprint_confidence": 0.8,
        "material": null,
        "colour": null,
        "footprint_area_m2": 260.52,
        "tags": {
          "addr:city": "Taguig",
          "addr:district": "Bonifacio Global City",
          "addr:housename": "B:5, Bonifacio High Street",
          "addr:street": "9th Avenue",
          "building": "yes",
          "name": "Bench",
          "shop": "clothes"
        }
      },
      "geometry": {
        "type": "Polygon",
        "coordinates": [
          [
            [
              52.517,
              -67.965
            ],
            [
              42.662,
              -64.495
            ],
            [
              34.309,
              -88.438
            ],
            [
              44.037,
              -91.564
            ],
            [
              52.517,
              -67.965
            ]
          ]
        ]
      }
    },
    {
      "type": "Feature",
      "id": "osm:way:69740688",
      "properties": {
        "id": "osm:way:69740688",
        "source_ids": [
          "osm:way:69740688",
          "source:osm"
        ],
        "parent_ids": [],
        "name": "Alveo High Street South Block",
        "feature_kind": "building_outline",
        "height_m": 38.2,
        "min_height_m": 0.0,
        "levels": 10.0,
        "height_status": "VERIFIED_GEOGRAPHIC",
        "height_method": "osm_height",
        "height_confidence": 0.75,
        "footprint_status": "VERIFIED_GEOGRAPHIC",
        "footprint_confidence": 0.8,
        "material": null,
        "colour": null,
        "footprint_area_m2": 2021.83,
        "tags": {
          "building": "office",
          "building:levels": "10",
          "height": "38.2",
          "name": "Alveo High Street South Block"
        }
      },
      "geometry": {
        "type": "Polygon",
        "coordinates": [
          [
            [
              -48.506,
              -123.507
            ],
            [
              -32.92,
              -78.224
            ],
            [
              -72.838,
              -64.658
            ],
            [
              -88.468,
              -110.063
            ],
            [
              -48.506,
              -123.507
            ]
          ]
        ]
      }
    },
    {
      "type": "Feature",
      "id": "osm:way:781744843",
      "properties": {
        "id": "osm:way:781744843",
        "source_ids": [
          "osm:way:781744843",
          "source:osm"
        ],
        "parent_ids": [],
        "name": "Mariano K. Tan Center",
        "feature_kind": "building_outline",
        "height_m": 25.6,
        "min_height_m": 0.0,
        "levels": 7.0,
        "height_status": "VERIFIED_GEOGRAPHIC",
        "height_method": "osm_height",
        "height_confidence": 0.75,
        "footprint_status": "VERIFIED_GEOGRAPHIC",
        "footprint_confidence": 0.8,
        "material": null,
        "colour": null,
        "footprint_area_m2": 1542.08,
        "tags": {
          "building": "construction",
          "building:levels": "7",
          "height": "25.6",
          "name": "Mariano K. Tan Center"
        }
      },
      "geometry": {
        "type": "Polygon",
        "coordinates": [
          [
            [
              8.59,
              91.911
            ],
            [
              -19.495,
              101.325
            ],
            [
              -32.488,
              63.036
            ],
            [
              -4.414,
              53.622
            ],
            [
              3.669,
              50.908
            ],
            [
              16.662,
              89.197
            ],
            [
              8.59,
              91.911
            ]
          ]
        ]
      }
    }
  ]
}
