{
  "type": "FeatureCollection",
  "schema_version": 1,
  "entity_id": "bgc_building_0005",
  "projected_crs": "EPSG:32651",
  "source_crs": "EPSG:4326",
  "local_origin_wgs84": [
    121.050972,
    14.550806
  ],
  "source_sha256": "09dc9d5aea72e11ad8d84d1c8d2e88132c0a5556e7a2f601824a0a7a74d4adcd",
  "features": [
    {
      "type": "Feature",
      "id": "osm:way:1070584578",
      "properties": {
        "id": "osm:way:1070584578",
        "source_ids": [
          "osm:way:1070584578",
          "source:osm"
        ],
        "parent_ids": [],
        "name": "The Verve Residences Two",
        "feature_kind": "building_outline",
        "height_m": 24.4,
        "min_height_m": 0.0,
        "levels": 5.0,
        "height_status": "VERIFIED_GEOGRAPHIC",
        "height_method": "osm_height",
        "height_confidence": 0.75,
        "footprint_status": "VERIFIED_GEOGRAPHIC",
        "footprint_confidence": 0.8,
        "material": null,
        "colour": "beige",
        "footprint_area_m2": 2480.14,
        "tags": {
          "building": "apartments",
          "building:colour": "beige",
          "building:levels": "5",
          "height": "24.4",
          "name": "The Verve Residences Two"
        }
      },
      "geometry": {
        "type": "Polygon",
        "coordinates": [
          [
            [
              -213.403,
              -198.754
            ],
            [
              -144.654,
              -220.302
            ],
            [
              -134.241,
              -187.491
            ],
            [
              -202.99,
              -165.943
            ],
            [
              -213.403,
              -198.754
            ]
          ]
        ]
      }
    },
    {
      "type": "Feature",
      "id": "osm:way:538702984",
      "properties": {
        "id": "osm:way:538702984",
        "source_ids": [
          "osm:way:538702984",
          "source:osm"
        ],
        "parent_ids": [],
        "name": null,
        "feature_kind": "building_part",
        "height_m": 172.0,
        "min_height_m": 0.0,
        "levels": 45.0,
        "height_status": "VERIFIED_GEOGRAPHIC",
        "height_method": "osm_height",
        "height_confidence": 0.75,
        "footprint_status": "VERIFIED_GEOGRAPHIC",
        "footprint_confidence": 0.8,
        "material": null,
        "colour": "beige",
        "footprint_area_m2": 1490.45,
        "tags": {
          "building:colour": "beige",
          "building:levels": "45",
          "building:part": "yes",
          "height": "172"
        }
      },
      "geometry": {
        "type": "Polygon",
        "coordinates": [
          [
            [
              -205.619,
              -198.533
            ],
            [
              -169.583,
              -211.003
            ],
            [
              -166.157,
              -201.217
            ],
            [
              -143.491,
              -209.058
            ],
            [
              -136.574,
              -189.286
            ],
            [
              -172.922,
              -176.713
            ],
            [
              -176.612,
              -187.261
            ],
            [
              -205.781,
              -177.173
            ],
            [
              -208.455,
              -184.831
            ],
            [
              -201.641,
              -187.191
            ],
            [
              -205.619,
              -198.533
            ]
          ]
        ]
      }
    }
  ]
}
