{
  "type": "FeatureCollection",
  "schema_version": 1,
  "entity_id": "bgc_m17_0005",
  "projected_crs": "EPSG:32651",
  "source_crs": "EPSG:4326",
  "local_origin_wgs84": [
    121.050972,
    14.550806
  ],
  "features": [
    {
      "type": "Feature",
      "id": "osm:way:469845355",
      "properties": {
        "id": "osm:way:469845355",
        "source_ids": [
          "osm:way:469845355",
          "source:osm"
        ],
        "parent_ids": [],
        "name": null,
        "feature_kind": "building_part",
        "height_m": 250.0,
        "min_height_m": 0.0,
        "levels": 61.0,
        "height_status": "VERIFIED_GEOGRAPHIC",
        "height_method": "osm_height",
        "height_confidence": 0.75,
        "footprint_status": "VERIFIED_GEOGRAPHIC",
        "footprint_confidence": 0.8,
        "material": "glass",
        "colour": null,
        "footprint_area_m2": 2037.82,
        "tags": {
          "building:levels": "61",
          "building:material": "glass",
          "building:part": "yes",
          "height": "250"
        },
        "canonical_entity_id": "osm:way:469845356",
        "render_role": "building_part",
        "parent_outline_id": "osm:way:469845356"
      },
      "geometry": {
        "type": "Polygon",
        "coordinates": [
          [
            [
              -487.07,
              236.101
            ],
            [
              -491.391,
              237.532
            ],
            [
              -508.127,
              187.6
            ],
            [
              -503.204,
              185.975
            ],
            [
              -505.705,
              178.493
            ],
            [
              -476.995,
              168.984
            ],
            [
              -473.008,
              167.656
            ],
            [
              -462.919,
              197.758
            ],
            [
              -456.669,
              216.385
            ],
            [
              -460.818,
              217.76
            ],
            [
              -489.979,
              227.427
            ],
            [
              -487.07,
              236.101
            ]
          ]
        ]
      }
    },
    {
      "type": "Feature",
      "id": "osm:way:469845356",
      "properties": {
        "id": "osm:way:469845356",
        "source_ids": [
          "osm:way:469845356",
          "source:osm"
        ],
        "parent_ids": [],
        "name": "Shangri-La at the Fort",
        "feature_kind": "building_outline",
        "height_m": 25.9,
        "min_height_m": 0.0,
        "levels": 5.0,
        "height_status": "VERIFIED_GEOGRAPHIC",
        "height_method": "osm_height",
        "height_confidence": 0.75,
        "footprint_status": "VERIFIED_GEOGRAPHIC",
        "footprint_confidence": 0.8,
        "material": null,
        "colour": null,
        "footprint_area_m2": 4985.63,
        "tags": {
          "building": "hotel",
          "building:levels": "5",
          "height": "25.9",
          "name": "Shangri-La at the Fort"
        },
        "render_role": "outline_residual",
        "canonical_entity_id": "osm:way:469845356"
      },
      "geometry": {
        "type": "Polygon",
        "coordinates": [
          [
            [
              -401.827,
              207.405
            ],
            [
              -406.883,
              200.975
            ],
            [
              -410.502,
              196.369
            ],
            [
              -412.071,
              194.368
            ],
            [
              -415.209,
              190.378
            ],
            [
              -416.779,
              188.377
            ],
            [
              -420.375,
              183.804
            ],
            [
              -423.208,
              180.199
            ],
            [
              -444.52,
              187.597
            ],
            [
              -449.1,
              185.201
            ],
            [
              -458.26,
              180.399
            ],
            [
              -462.84,
              178.004
            ],
            [
              -468.364,
              162.326
            ],
            [
              -471.027,
              154.79
            ],
            [
              -472.386,
              150.918
            ],
            [
              -507.55,
              163.093
            ],
            [
              -515.719,
              165.886
            ],
            [
              -508.127,
              187.6
            ],
            [
              -503.204,
              185.975
            ],
            [
              -505.705,
              178.493
            ],
            [
              -476.995,
              168.984
            ],
            [
              -473.008,
              167.656
            ],
            [
              -462.919,
              197.758
            ],
            [
              -421.912,
              184.282
            ],
            [
              -403.224,
              207.871
            ],
            [
              -401.827,
              207.405
            ]
          ]
        ]
      }
    },
    {
      "type": "Feature",
      "id": "osm:way:469845357",
      "properties": {
        "id": "osm:way:469845357",
        "source_ids": [
          "osm:way:469845357",
          "source:osm"
        ],
        "parent_ids": [],
        "name": null,
        "feature_kind": "building_part",
        "height_m": 31.1,
        "min_height_m": 0.0,
        "levels": 6.0,
        "height_status": "VERIFIED_GEOGRAPHIC",
        "height_method": "osm_height",
        "height_confidence": 0.75,
        "footprint_status": "VERIFIED_GEOGRAPHIC",
        "footprint_confidence": 0.8,
        "material": null,
        "colour": null,
        "footprint_area_m2": 1417.47,
        "tags": {
          "building:levels": "6",
          "building:part": "yes",
          "height": "31.1"
        },
        "canonical_entity_id": "osm:way:469845356",
        "render_role": "building_part",
        "parent_outline_id": "osm:way:469845356"
      },
      "geometry": {
        "type": "Polygon",
        "coordinates": [
          [
            [
              -403.224,
              207.871
            ],
            [
              -457.909,
              226.444
            ],
            [
              -460.818,
              217.76
            ],
            [
              -456.669,
              216.385
            ],
            [
              -462.919,
              197.758
            ],
            [
              -421.912,
              184.282
            ],
            [
              -403.224,
              207.871
            ]
          ]
        ]
      }
    },
    {
      "type": "Feature",
      "id": "osm:way:469906738",
      "properties": {
        "id": "osm:way:469906738",
        "source_ids": [
          "osm:way:469906738",
          "source:osm"
        ],
        "parent_ids": [],
        "name": null,
        "feature_kind": "building_part",
        "height_m": 188.8,
        "min_height_m": 19.2,
        "levels": 59.0,
        "height_status": "ESTIMATED",
        "height_method": "building_levels_x_3.2m",
        "height_confidence": 0.55,
        "footprint_status": "VERIFIED_GEOGRAPHIC",
        "footprint_confidence": 0.8,
        "material": null,
        "colour": null,
        "footprint_area_m2": 234.54,
        "tags": {
          "building:levels": "59",
          "building:min_level": "6",
          "building:part": "yes"
        },
        "canonical_entity_id": "osm:way:469845356",
        "render_role": "building_part",
        "parent_outline_id": "osm:way:469845356"
      },
      "geometry": {
        "type": "Polygon",
        "coordinates": [
          [
            [
              -474.508,
              176.167
            ],
            [
              -503.204,
              185.975
            ],
            [
              -505.705,
              178.493
            ],
            [
              -476.995,
              168.984
            ],
            [
              -474.508,
              176.167
            ]
          ]
        ]
      }
    },
    {
      "type": "Feature",
      "id": "osm:way:469906739",
      "properties": {
        "id": "osm:way:469906739",
        "source_ids": [
          "osm:way:469906739",
          "source:osm"
        ],
        "parent_ids": [],
        "name": null,
        "feature_kind": "building_part",
        "height_m": 241.0,
        "min_height_m": 0.0,
        "levels": 59.0,
        "height_status": "VERIFIED_GEOGRAPHIC",
        "height_method": "osm_height",
        "height_confidence": 0.75,
        "footprint_status": "VERIFIED_GEOGRAPHIC",
        "footprint_confidence": 0.8,
        "material": "glass",
        "colour": null,
        "footprint_area_m2": 281.19,
        "tags": {
          "building:levels": "59",
          "building:material": "glass",
          "building:part": "yes",
          "height": "241"
        },
        "canonical_entity_id": "osm:way:469845356",
        "render_role": "building_part",
        "parent_outline_id": "osm:way:469845356"
      },
      "geometry": {
        "type": "Polygon",
        "coordinates": [
          [
            [
              -457.909,
              226.444
            ],
            [
              -487.07,
              236.101
            ],
            [
              -489.979,
              227.427
            ],
            [
              -460.818,
              217.76
            ],
            [
              -457.909,
              226.444
            ]
          ]
        ]
      }
    }
  ]
}
